[
  {
    "name": "Hostellerie du Rosenmeer",
    "thoroughfare": "45 avenue de la Gare",
    "postalCode": "67560",
    "city": "ROSHEIM",
    "uri": "https://restaurant.michelin.fr/2cnfm96/hostellerie-du-rosenmeer-rosheim",
    "chef": "Hubert Maetz",
    "star": 1
  },
  {
    "name": "Initial",
    "thoroughfare": "24 Rue Saint-Manvieu",
    "postalCode": "14000",
    "city": "Caen",
    "uri": "https://restaurant.michelin.fr/sd2y8ik/initial-caen",
    "chef": "Yohann Lemonnier",
    "star": 1
  },
  {
    "name": "L'Auberge de la Pomme",
    "thoroughfare": "44 rue de l' eure",
    "postalCode": "27340",
    "city": "Les Damps",
    "uri": "https://restaurant.michelin.fr/2al6a9i/lauberge-de-la-pomme-les-damps",
    "chef": "William Boquelet",
    "star": 1
  },
  {
    "name": "Julien Binz",
    "thoroughfare": "7 Rue des Cigognes",
    "postalCode": "68770",
    "city": "Ammerschwihr",
    "uri": "https://restaurant.michelin.fr/yi79hbnh/julien-binz-ammerschwihr",
    "chef": "Le Chef Julien Binz",
    "star": 1
  },
  {
    "name": "La Licorne Royale",
    "thoroughfare": "27 Place Isaac Benserade",
    "postalCode": "27480",
    "city": "Lyons-la-Forêt",
    "uri": "https://restaurant.michelin.fr/2ehwc2a/la-licorne-royale-lyons-la-foret",
    "chef": "Christophe POIRIER",
    "star": 1
  },
  {
    "name": "Alléno Paris au Pavillon Ledoyen",
    "thoroughfare": "8 avenue Dutuit",
    "postalCode": "75008",
    "city": "Paris",
    "uri": "https://restaurant.michelin.fr/2ab5qlx/alleno-paris-au-pavillon-ledoyen-paris-08",
    "chef": "Yannick Alléno",
    "star": 3
  },
  {
    "name": "Domaine de Clairefontaine",
    "thoroughfare": "chemin des Fontanettes",
    "postalCode": "38121",
    "city": "Chonas-l'Amballan",
    "uri": "https://restaurant.michelin.fr/2b8j4np/domaine-de-clairefontaine-chonas-lamballan",
    "chef": "Philippe Girardon",
    "star": 1
  },
  {
    "name": "Faventia",
    "thoroughfare": "3100 route de Bagnols-en-Forêt",
    "postalCode": "83440",
    "city": "Tourrettes",
    "uri": "https://restaurant.michelin.fr/2dix4nq137/faventia-tourrettes",
    "chef": "Philippe Jourdin",
    "star": 1
  },
  {
    "name": "L'Ekrin by Laurent Azoulay",
    "thoroughfare": "Route de la Montée",
    "postalCode": "73550",
    "city": "MERIBEL",
    "uri": "https://restaurant.michelin.fr/9isyik39/lekrin-laurent-azoulay-meribel-mottaret",
    "chef": "Laurent AZOULAY",
    "star": 1
  },
  {
    "name": "Le M",
    "thoroughfare": "22 r. du Cdt-Drogou",
    "postalCode": "29200",
    "city": "Brest",
    "uri": "https://restaurant.michelin.fr/2epv4gf/le-m-brest",
    "chef": "Philippe Le Bigot",
    "star": 1
  },
  {
    "name": "Les Morainières",
    "thoroughfare": "route de Marétel",
    "postalCode": "73170",
    "city": "Jongieux",
    "uri": "https://restaurant.michelin.fr/2dd2ann/les-morainieres-jongieux",
    "chef": "Michaël Arnoult",
    "star": 2
  },
  {
    "name": "Le Baudelaire",
    "thoroughfare": "8 rue Duphot",
    "postalCode": "75001",
    "city": "Paris 01",
    "uri": "https://restaurant.michelin.fr/2fdc0eg/le-baudelaire-paris-01",
    "chef": "Guillaume Goupil",
    "star": 1
  },
  {
    "name": "Le Moulin de la Gorce",
    "thoroughfare": "D17",
    "postalCode": "87800",
    "city": "La Roche-l'Abeille",
    "uri": "https://restaurant.michelin.fr/2awwemv/le-moulin-de-la-gorce-la-roche-labeille",
    "chef": "Pierre Bertranet",
    "star": 1
  },
  {
    "name": "Le Prince Noir - Vivien Durand",
    "thoroughfare": "1 rue du Prince Noir",
    "postalCode": "33310",
    "city": "Lormont",
    "uri": "https://restaurant.michelin.fr/4g00u3j8/le-prince-noir-vivien-durand-lormont",
    "chef": "Durand Vivien",
    "star": 1
  },
  {
    "name": "Le Clos des Sens",
    "thoroughfare": "13 r. J. -Mermoz",
    "postalCode": "74940",
    "city": "Annecy",
    "uri": "https://restaurant.michelin.fr/28pf13h/le-clos-des-sens-annecy-le-vieux",
    "chef": "Laurent Petit",
    "star": 2
  },
  {
    "name": "Le Chantecler",
    "thoroughfare": "37 Promenade des Anglais",
    "postalCode": "06000",
    "city": "NICE",
    "uri": "https://restaurant.michelin.fr/2a4echf50/le-chantecler-nice",
    "chef": "Jean-Denis Rieubland",
    "star": 2
  },
  {
    "name": "Le Carmin",
    "thoroughfare": "4B Place Carnot",
    "postalCode": "21200",
    "city": "Beaune",
    "uri": "https://restaurant.michelin.fr/8zb6c2d4/le-carmin-beaune",
    "chef": "Christophe Quéant",
    "star": 1
  },
  {
    "name": "Benoit",
    "thoroughfare": "20 Rue St-Martin",
    "postalCode": "75004",
    "city": "Paris 04",
    "uri": "https://restaurant.michelin.fr/2a8isn4/benoit-paris-04",
    "chef": "Fabienne Eymard",
    "star": 1
  },
  {
    "name": "Origine",
    "thoroughfare": "26 Rampe Cauchoise",
    "postalCode": "76000",
    "city": "Rouen",
    "uri": "https://restaurant.michelin.fr/3xmi14j/origine-rouen",
    "chef": "Benjamin Lechevallier",
    "star": 1
  },
  {
    "name": "La Scène Thélème",
    "thoroughfare": "18 Rue Troyon",
    "postalCode": "75017",
    "city": "PARIS",
    "uri": "https://restaurant.michelin.fr/ygx47dyb/la-scene-theleme-paris-17",
    "chef": "Julien Roucheteau",
    "star": 1
  },
  {
    "name": "La Palme d'Or",
    "thoroughfare": "73 Boulevard de la Croisette",
    "postalCode": "06400",
    "city": "Cannes",
    "uri": "https://restaurant.michelin.fr/292bk5u/la-palme-dor-cannes",
    "chef": "Christian Sinicropi",
    "star": 2
  },
  {
    "name": "Régis et Jacques Marcon",
    "thoroughfare": "Larsiallas",
    "postalCode": "43290",
    "city": "SAINT-BONNET-LE-FROID",
    "uri": "https://restaurant.michelin.fr/2dntkxh/regis-et-jacques-marcon-saint-bonnet-le-froid",
    "chef": "Régis et  Jacques Marcon",
    "star": 3
  },
  {
    "name": "Le Bois sans Feuilles",
    "thoroughfare": "728 Route de Villerest",
    "postalCode": "42155",
    "city": "Ouches",
    "uri": "https://restaurant.michelin.fr/2cm53gy/le-bois-sans-feuilles-ouches",
    "chef": "Michel et César Troisgros",
    "star": 3
  },
  {
    "name": "Pur' - Jean-François Rouquette",
    "thoroughfare": "5 r. de la Paix",
    "postalCode": "75002",
    "city": "Paris 02",
    "uri": "https://restaurant.michelin.fr/2dqiunf/pur-jean-francois-rouquette-paris-02",
    "chef": "ROUQUETTE Jean-François",
    "star": 1
  },
  {
    "name": "Auberge de la Diligence",
    "thoroughfare": "4 r. de la Libération",
    "postalCode": "49440",
    "city": "Loiré",
    "uri": "https://restaurant.michelin.fr/29ryt77/auberge-de-la-diligence-loire",
    "chef": "Michel Cudraz",
    "star": 1
  },
  {
    "name": "Le P'tit Polyte",
    "thoroughfare": "2 Rue de la Chapelle",
    "postalCode": "38860",
    "city": "Les Deux Alpes",
    "uri": "https://restaurant.michelin.fr/2bufvvg87/le-ptit-polyte-les-deux-alpes",
    "chef": "Mathew Hegarty",
    "star": 1
  },
  {
    "name": "Neige d'Été",
    "thoroughfare": "12 Rue de l'Amiral Roussin",
    "postalCode": "75015",
    "city": "Paris 15",
    "uri": "https://restaurant.michelin.fr/9fkib5i9/neige-dete-paris-15",
    "chef": "Hideki Nishi",
    "star": 1
  },
  {
    "name": "Ô Saveurs",
    "thoroughfare": "8 place Ormeaux au village",
    "postalCode": "31180",
    "city": "ROUFFIAC-TOLOSAN",
    "uri": "https://restaurant.michelin.fr/2b3jb0y/o-saveurs-rouffiac-tolosan",
    "chef": "David Biasibetti",
    "star": 1
  },
  {
    "name": "La Mare aux Oiseaux",
    "thoroughfare": "223 RUE DU CHEF DE L'ILE Fedrun",
    "postalCode": "44720",
    "city": "Saint-Joachim",
    "uri": "https://restaurant.michelin.fr/2atvlv0/la-mare-aux-oiseaux-saint-joachim",
    "chef": "Eric Guérin",
    "star": 1
  },
  {
    "name": "Le Roc Alto",
    "thoroughfare": "Quartier La Ville",
    "postalCode": "05350",
    "city": "SAINT-VERAN",
    "uri": "https://restaurant.michelin.fr/8xdk7lc4/le-roc-alto-saint-veran",
    "chef": "Alexandre Lechêne",
    "star": 1
  },
  {
    "name": "La Table de La Butte",
    "thoroughfare": "10 rue de la Mer",
    "postalCode": "29260",
    "city": "PLOUIDER",
    "uri": "https://restaurant.michelin.fr/2cj2itx/la-table-de-la-butte-plouider",
    "chef": "Nicolas Conraux",
    "star": 1
  },
  {
    "name": "Le Candille",
    "thoroughfare": "bd C. Rebuffel",
    "postalCode": "06250",
    "city": "Mougins",
    "uri": "https://restaurant.michelin.fr/2a1fgdk/le-candille-mougins",
    "chef": "Xavier Burelle",
    "star": 1
  },
  {
    "name": "64° Le Restaurant",
    "thoroughfare": "9-13 Rue du Général de Gaulle",
    "postalCode": "68240",
    "city": "Kaysersberg",
    "uri": "https://restaurant.michelin.fr/2c30770n/64deg-le-restaurant-kaysersberg-vignoble",
    "chef": "Olivier Nasti",
    "star": 2
  },
  {
    "name": "Hélène Darroze",
    "thoroughfare": "4 rue d'Assas",
    "postalCode": "75006",
    "city": "Paris 06",
    "uri": "https://restaurant.michelin.fr/2a93ort/helene-darroze-paris-06",
    "chef": "Hélène Darroze",
    "star": 1
  },
  {
    "name": "L'Abeille",
    "thoroughfare": "10 Avenue d'Iéna",
    "postalCode": "75016",
    "city": "Paris 16",
    "uri": "https://restaurant.michelin.fr/2fcezsf/labeille-paris-16",
    "chef": "Christophe Moret",
    "star": 2
  },
  {
    "name": "L'Atelier de Gaztelur",
    "thoroughfare": "Chemin de Gastelhur",
    "postalCode": "64200",
    "city": "Arcangues",
    "uri": "https://restaurant.michelin.fr/t3tqba7q/latelier-de-gaztelur-arcangues",
    "chef": "Alexandre Bousquet",
    "star": 1
  },
  {
    "name": "La Bastide de Moustiers",
    "thoroughfare": "Parc naturel régional du Verdon, Chemin de Quinson",
    "postalCode": "04360",
    "city": "Moustiers-Sainte-Marie",
    "uri": "https://restaurant.michelin.fr/2cbq46s/la-bastide-de-moustiers-moustiers-sainte-marie",
    "chef": "Frédéric Garnier",
    "star": 1
  },
  {
    "name": "Il Carpaccio",
    "thoroughfare": "37 avenue Hoche",
    "postalCode": "75008",
    "city": "Paris 08",
    "uri": "https://restaurant.michelin.fr/2fdi6av208/il-carpaccio-paris-08",
    "chef": "",
    "star": 1
  },
  {
    "name": "Aux Pesked",
    "thoroughfare": "59 Rue du Légué",
    "postalCode": "22000",
    "city": "Saint-Brieuc",
    "uri": "https://restaurant.michelin.fr/2aru9pt/aux-pesked-saint-brieuc",
    "chef": "Mathieu Aumont",
    "star": 1
  },
  {
    "name": "En Marge",
    "thoroughfare": "1204 route de la Croix-Falgarde",
    "postalCode": "31320",
    "city": "AUREVILLE",
    "uri": "https://restaurant.michelin.fr/q8lel2a/en-marge-aureville",
    "chef": "Frank Renimel",
    "star": 1
  },
  {
    "name": "Auberge du Vieux Puits",
    "thoroughfare": "5 Avenue Saint-Victor",
    "postalCode": "11360",
    "city": "Fontjoncouse",
    "uri": "https://restaurant.michelin.fr/29ib1yg/auberge-du-vieux-puits-fontjoncouse",
    "chef": "Gilles Goujon",
    "star": 3
  },
  {
    "name": "Domaine d'Auriac",
    "thoroughfare": "Route de Saint-Hilaire",
    "postalCode": "11000",
    "city": "Carcassonne",
    "uri": "https://restaurant.michelin.fr/2bmf006/domaine-dauriac-carcassonne",
    "chef": "Philippe Deschamps",
    "star": 1
  },
  {
    "name": "L'Oustau de Baumanière",
    "thoroughfare": "Village des Baux-de-Provence",
    "postalCode": "13520",
    "city": "Les Baux-de-Provence",
    "uri": "https://restaurant.michelin.fr/28tn79w/loustau-de-baumaniere-les-baux-de-provence",
    "chef": "Jean-André Charial",
    "star": 2
  },
  {
    "name": "Les Fresques",
    "thoroughfare": "D18",
    "postalCode": "24240",
    "city": "Monestier",
    "uri": "https://restaurant.michelin.fr/2ax5yy8/les-fresques-monestier",
    "chef": "Didier Casaguana",
    "star": 1
  },
  {
    "name": "Bruno",
    "thoroughfare": "2350 route des Arcs, Campagne Mariette",
    "postalCode": "83510",
    "city": "Lorgues",
    "uri": "https://restaurant.michelin.fr/29s5co3/bruno-lorgues",
    "chef": "Benjamin Bruno",
    "star": 1
  },
  {
    "name": "Le Brittany",
    "thoroughfare": "bd Ste-Barbe",
    "postalCode": "29681",
    "city": "Roscoff",
    "uri": "https://restaurant.michelin.fr/2cnbixn/le-brittany-roscoff",
    "chef": "Loic Le Bail",
    "star": 1
  },
  {
    "name": "La Maison de Bournissac",
    "thoroughfare": "montée d'Eyragues",
    "postalCode": "13550",
    "city": "Les Paluds-des-Noves",
    "uri": "https://restaurant.michelin.fr/2csipcf/la-maison-de-bournissac-noves",
    "chef": "Christian Peyre",
    "star": 1
  },
  {
    "name": "Le Quincangrogne",
    "thoroughfare": "7 Rue de l'Abreuvoir",
    "postalCode": "77400",
    "city": "Dampmart",
    "uri": "https://restaurant.michelin.fr/u1pjp7ux/le-quincangrogne-dampmart",
    "chef": "Franck Charpentier",
    "star": 1
  },
  {
    "name": "Auberge du Bon Laboureur",
    "thoroughfare": "6 r. Dr Bretonneau",
    "postalCode": "37150",
    "city": "Chenonceaux",
    "uri": "https://restaurant.michelin.fr/2bpwyme/auberge-du-bon-laboureur-chenonceaux",
    "chef": "Antoine Jeudi",
    "star": 1
  },
  {
    "name": "J.-M. Pérochon",
    "thoroughfare": "63 avenue de la Grand'Roche",
    "postalCode": "85470",
    "city": "Brétignolles-sur-Mer",
    "uri": "https://restaurant.michelin.fr/2dyiess/j-m-perochon-bretignolles-sur-mer",
    "chef": "Jean-Marc Pérochon",
    "star": 1
  },
  {
    "name": "Les Bacchanales",
    "thoroughfare": "247 avenue de Provence",
    "postalCode": "06140",
    "city": "VENCE",
    "uri": "https://restaurant.michelin.fr/2en7eas/les-bacchanales-vence",
    "chef": "Christophe Dufau",
    "star": 1
  },
  {
    "name": "Les Bas-Rupts",
    "thoroughfare": "181 rte de la Bresse",
    "postalCode": "88400",
    "city": "Bas-Rupts",
    "uri": "https://restaurant.michelin.fr/29jqk2d/les-bas-rupts-bas-rupts",
    "chef": "Michel Philippe",
    "star": 1
  },
  {
    "name": "Stéphane Derbord",
    "thoroughfare": "10 Place du Président Wilson",
    "postalCode": "21000",
    "city": "Dijon",
    "uri": "https://restaurant.michelin.fr/29dkmez/stephane-derbord-dijon",
    "chef": "Stéphane Derbord",
    "star": 1
  },
  {
    "name": "Auberge des Templiers",
    "thoroughfare": "D2007",
    "postalCode": "45290",
    "city": "Les Bézards",
    "uri": "https://restaurant.michelin.fr/2bicgcl/auberge-des-templiers-les-bezards",
    "chef": "Yoshihiko MIURA",
    "star": 1
  },
  {
    "name": "Manoir de la Boulaie",
    "thoroughfare": "33 rue Chapelle St-Martin",
    "postalCode": "44115",
    "city": "HAUTE-GOULAINE",
    "uri": "https://restaurant.michelin.fr/2a3ey4n/manoir-de-la-boulaie-haute-goulaine",
    "chef": "Laurent Saudeau",
    "star": 2
  },
  {
    "name": "Shang Palace",
    "thoroughfare": "10 Avenue d'Iéna",
    "postalCode": "75016",
    "city": "Paris 16",
    "uri": "https://restaurant.michelin.fr/2fcezsf205/shang-palace-paris-16",
    "chef": "Samuel Lee",
    "star": 1
  },
  {
    "name": "Frédéric Simonin",
    "thoroughfare": "25 rue Bayen",
    "postalCode": "75017",
    "city": "Paris",
    "uri": "https://restaurant.michelin.fr/2f8857v/frederic-simonin-paris-17",
    "chef": "FREDERIC SIMONIN",
    "star": 1
  },
  {
    "name": "Le Sénéchal",
    "thoroughfare": "Sauveterre de Rouergue",
    "postalCode": "12800",
    "city": "Sauveterre-de-Rouergue",
    "uri": "https://restaurant.michelin.fr/2cv1ygx/le-senechal-sauveterre-de-rouergue",
    "chef": "Michel Truchon",
    "star": 1
  },
  {
    "name": "L'Amphitryon",
    "thoroughfare": "127 r. du Col. -Müller",
    "postalCode": "56100",
    "city": "Lorient",
    "uri": "https://restaurant.michelin.fr/29saut6/lamphitryon-lorient",
    "chef": "Olivier Beurné",
    "star": 1
  },
  {
    "name": "Loiseau des Ducs",
    "thoroughfare": "3 Rue Vauban",
    "postalCode": "21000",
    "city": "Dijon",
    "uri": "https://restaurant.michelin.fr/2jd4ivca/loiseau-des-ducs-dijon",
    "chef": "Louis-Philippe Vigilant",
    "star": 1
  },
  {
    "name": "Maison Rostang",
    "thoroughfare": "20 rue Rennequin",
    "postalCode": "75017",
    "city": "Paris",
    "uri": "https://restaurant.michelin.fr/2afdah0/maison-rostang-paris-17",
    "chef": "Nicolas Beaumann",
    "star": 2
  },
  {
    "name": "Flaveur",
    "thoroughfare": "25 Rue Gubernatis",
    "postalCode": "06000",
    "city": "Nice",
    "uri": "https://restaurant.michelin.fr/2exgwy4/flaveur-nice",
    "chef": "Gaël et Mickaël Tourteaux",
    "star": 2
  },
  {
    "name": "Le Domaine du Colombier",
    "thoroughfare": "270 Chemin de Malombre",
    "postalCode": "26780",
    "city": "Malataverne",
    "uri": "https://restaurant.michelin.fr/2ca9g6u/le-domaine-du-colombier-malataverne",
    "chef": "Cyril Fressac",
    "star": 1
  },
  {
    "name": "Les Terraillers",
    "thoroughfare": "11 Route Chemin-Neuf",
    "postalCode": "06410",
    "city": "Biot",
    "uri": "https://restaurant.michelin.fr/28x308q/les-terraillers-biot",
    "chef": "Michaël Fulci",
    "star": 1
  },
  {
    "name": "Les Rosiers",
    "thoroughfare": "32 av. Beau Soleil",
    "postalCode": "64200",
    "city": "Biarritz",
    "uri": "https://restaurant.michelin.fr/2epi2a4/les-rosiers-biarritz",
    "chef": "Andrée et Stéphane Rosier",
    "star": 1
  },
  {
    "name": "Jean-Luc Tartarin",
    "thoroughfare": "Square Saint-Roch",
    "postalCode": "76600",
    "city": "Le Havre",
    "uri": "https://restaurant.michelin.fr/2enmc29/jean-luc-tartarin-le-havre",
    "chef": "Jean Luc Tartarin",
    "star": 2
  },
  {
    "name": "Les Explorateurs",
    "thoroughfare": "place du Slalom",
    "postalCode": "73440",
    "city": "VAL THORENS",
    "uri": "https://restaurant.michelin.fr/ui89zrwk/les-explorateurs-val-thorens",
    "chef": "Josselin JEANBLANC",
    "star": 1
  },
  {
    "name": "Le Jasmin",
    "thoroughfare": "Lieu-dit Lalande",
    "postalCode": "47140",
    "city": "Saint-Sylvestre-sur-Lot",
    "uri": "https://restaurant.michelin.fr/u6v6rb42/le-jasmin-saint-sylvestre-sur-lot",
    "chef": "Michel Vico",
    "star": 1
  },
  {
    "name": "Mavrommatis",
    "thoroughfare": "42 rue Daubenton",
    "postalCode": "75005",
    "city": "Paris 05",
    "uri": "https://restaurant.michelin.fr/2a95vol/mavrommatis-paris-05",
    "chef": "Andréas MAVROMMATIS",
    "star": 1
  },
  {
    "name": "La Table de l'Espadon",
    "thoroughfare": "15 Place Vendôme",
    "postalCode": "75001",
    "city": "Paris",
    "uri": "https://restaurant.michelin.fr/yhoi9vry/la-table-de-lespadon-paris-01",
    "chef": "Le Chef Nicolas Sale",
    "star": 2
  },
  {
    "name": "Alexandre",
    "thoroughfare": "2 rue Xavier Tronc",
    "postalCode": "30128",
    "city": "Garons",
    "uri": "https://restaurant.michelin.fr/2a57m2j/alexandre-garons",
    "chef": "Michel Kayser",
    "star": 2
  },
  {
    "name": "Chapelle Saint-Martin",
    "thoroughfare": "33, Saint Martin du Fault",
    "postalCode": "87510",
    "city": "Nieul",
    "uri": "https://restaurant.michelin.fr/2c4rgah/chapelle-saint-martin-nieul",
    "chef": "Gilles Dudognon",
    "star": 1
  },
  {
    "name": "Relais de la Poste",
    "thoroughfare": "21 rue du Gén. -de-Gaulle",
    "postalCode": "67610",
    "city": "LA-WANTZENAU",
    "uri": "https://restaurant.michelin.fr/2b1jv34/relais-de-la-poste-la-wantzenau",
    "chef": "Stephan Bernhard",
    "star": 1
  },
  {
    "name": "La Coopérative",
    "thoroughfare": "2A Route de Caladroy",
    "postalCode": "66720",
    "city": "Bélesta",
    "uri": "https://restaurant.michelin.fr/3w3putu/la-cooperative-belesta",
    "chef": "LEMAL Laurent",
    "star": 1
  },
  {
    "name": "Ô Flaveurs",
    "thoroughfare": "Château de Chilly",
    "postalCode": "74140",
    "city": "Douvaine",
    "uri": "https://restaurant.michelin.fr/2dr6qsw/o-flaveurs-douvaine",
    "chef": "Jérôme Mamet",
    "star": 1
  },
  {
    "name": "Le Clarence",
    "thoroughfare": "31 Avenue Franklin Delano Roosevelt",
    "postalCode": "75008",
    "city": "Paris 08",
    "uri": "https://restaurant.michelin.fr/sntd30zx/le-clarence-paris-08",
    "chef": "Christophe Pelé",
    "star": 2
  },
  {
    "name": "La Table de Patrick Raingeard",
    "thoroughfare": "1312 av. Raymond-Poincaré",
    "postalCode": "06360",
    "city": "EZE-BORD-DE-MER",
    "uri": "https://restaurant.michelin.fr/2e2m5rq/la-table-de-patrick-raingeard-eze-bord-de-mer",
    "chef": "Patrick RAINGEARD",
    "star": 1
  },
  {
    "name": "Raphaël Vionnet",
    "thoroughfare": "43 Avenue du Général Leclerc",
    "postalCode": "74200",
    "city": "Thonon-les-Bains",
    "uri": "https://restaurant.michelin.fr/6pyhps6h/raphael-vionnet-thonon-les-bains",
    "chef": "Raphaël Vionnet",
    "star": 1
  },
  {
    "name": "Ivan Vautier",
    "thoroughfare": "3 avenue Henry-Chéron",
    "postalCode": "14000",
    "city": "Caen",
    "uri": "https://restaurant.michelin.fr/290z3mh/ivan-vautier-caen",
    "chef": "Ivan Vautier",
    "star": 1
  },
  {
    "name": "Yoann Conte",
    "thoroughfare": "13 Vieille-Route-des-Pensières",
    "postalCode": "74290",
    "city": "Veyrier-du-Lac",
    "uri": "https://restaurant.michelin.fr/2fcm39b/yoann-conte-veyrier-du-lac",
    "chef": "Yoann CONTE",
    "star": 2
  },
  {
    "name": "Le Coquillage",
    "thoroughfare": "Lieu-dit Le Buot",
    "postalCode": "35350",
    "city": "Saint-Méloir-des-Ondes",
    "uri": "https://restaurant.michelin.fr/291q1xd/le-coquillage-saint-meloir-des-ondes",
    "chef": "Hugo Roellinger",
    "star": 1
  },
  {
    "name": "L'Atelier d'Edmond",
    "thoroughfare": "au Fornet",
    "postalCode": "73150",
    "city": "Val-d'Isère",
    "uri": "https://restaurant.michelin.fr/2e1ykis/latelier-dedmond-val-disere",
    "chef": "Benoît Vidal",
    "star": 2
  },
  {
    "name": "L'Essentiel",
    "thoroughfare": "29 Rue Mirabeau",
    "postalCode": "14800",
    "city": "DEAUVILLE",
    "uri": "https://restaurant.michelin.fr/40jnqvq/lessentiel-deauville",
    "chef": "Mi-Ra et Charles Thuillant",
    "star": 1
  },
  {
    "name": "Maison Clovis",
    "thoroughfare": "19 bd Brotteaux",
    "postalCode": "69006",
    "city": "Lyon",
    "uri": "https://restaurant.michelin.fr/2eqhwui/maison-clovis-lyon-06",
    "chef": "Clovis Khoury",
    "star": 1
  },
  {
    "name": "La Rotonde",
    "thoroughfare": "200 avenue du Casino",
    "postalCode": "69890",
    "city": "LA-TOUR-DE-SALVAGNY",
    "uri": "https://restaurant.michelin.fr/29uqy46/la-rotonde-la-tour-de-salvagny",
    "chef": "Jean-François MALLE",
    "star": 1
  },
  {
    "name": "Le Bénaton",
    "thoroughfare": "25 Rue du Faubourg-Bretonnière",
    "postalCode": "21200",
    "city": "BEAUNE",
    "uri": "https://restaurant.michelin.fr/28u9h7z/le-benaton-beaune",
    "chef": "Keishi Sugimura",
    "star": 1
  },
  {
    "name": "Ithurria",
    "thoroughfare": "pl. du Fronton",
    "postalCode": "64250",
    "city": "Ainhoa",
    "uri": "https://restaurant.michelin.fr/2bbain5/ithurria-ainhoa",
    "chef": "Xavier Isabal",
    "star": 1
  },
  {
    "name": "Relais de la Poste",
    "thoroughfare": "24 avenue de Maremne",
    "postalCode": "40140",
    "city": "Magescq",
    "uri": "https://restaurant.michelin.fr/2c6dfrz/relais-de-la-poste-magescq",
    "chef": "Jean Coussau",
    "star": 2
  },
  {
    "name": "Le Moulin de l'Abbaye",
    "thoroughfare": "1 avenue Pierre de Bourdeilles",
    "postalCode": "24310",
    "city": "BRANTOME",
    "uri": "https://restaurant.michelin.fr/2bk4rlv/le-moulin-de-labbaye-brantome-en-perigord",
    "chef": "LECOIN LOIC",
    "star": 1
  },
  {
    "name": "Chez Michèle",
    "thoroughfare": "57 rue Principale",
    "postalCode": "57810",
    "city": "Languimberg",
    "uri": "https://restaurant.michelin.fr/29pia6z/chez-michele-languimberg",
    "chef": "Bruno Poiré",
    "star": 1
  },
  {
    "name": "Hostellerie Bérard",
    "thoroughfare": "Avenue Gabriel-Péri",
    "postalCode": "83740",
    "city": "LA-CADIERE-D'AZUR",
    "uri": "https://restaurant.michelin.fr/2bl33gu/hostellerie-berard-la-cadiere-dazur",
    "chef": "Jean-François Bérard",
    "star": 1
  },
  {
    "name": "Numéro 3",
    "thoroughfare": "3 rue du Général de Gaulle",
    "postalCode": "78490",
    "city": "Le Tremblay-sur-Mauldre",
    "uri": "https://restaurant.michelin.fr/2dnmje9/numero-3-le-tremblay-sur-mauldre",
    "chef": "Laurent Trochain",
    "star": 1
  },
  {
    "name": "Le Chiberta",
    "thoroughfare": "3 Rue Arsène Houssaye",
    "postalCode": "75008",
    "city": "Paris 08",
    "uri": "https://restaurant.michelin.fr/2abl39j/le-chiberta-paris-08",
    "chef": "Stéphane Laruelle",
    "star": 1
  },
  {
    "name": "Le Petit Nice",
    "thoroughfare": "Anse de Maldormé - Corniche J. F. Kennedy",
    "postalCode": "13007",
    "city": "Marseille 07",
    "uri": "https://restaurant.michelin.fr/2c76rmd/le-petit-nice-marseille-07",
    "chef": "Gérald Passédat",
    "star": 3
  },
  {
    "name": "La Barbacane",
    "thoroughfare": "Place Auguste-Pierre-Pont",
    "postalCode": "11000",
    "city": "Carcassonne",
    "uri": "https://restaurant.michelin.fr/292xja3/la-barbacane-carcassonne",
    "chef": "RYON Jérôme",
    "star": 1
  },
  {
    "name": "Le Fanal",
    "thoroughfare": "17 Avenue du Fontaulé",
    "postalCode": "66650",
    "city": "Banyuls-sur-Mer",
    "uri": "https://restaurant.michelin.fr/yw26sgs/le-fanal-banyuls-sur-mer",
    "chef": "Pascal Borrell",
    "star": 1
  },
  {
    "name": "Au Trou Gascon",
    "thoroughfare": "40 rue Taine",
    "postalCode": "75012",
    "city": "Paris",
    "uri": "https://restaurant.michelin.fr/2acpe43/au-trou-gascon-paris-12",
    "chef": "Hugo MARTIN",
    "star": 1
  },
  {
    "name": "Carré des Feuillants",
    "thoroughfare": "14 rue de Castiglione",
    "postalCode": "75001",
    "city": "Paris 01",
    "uri": "https://restaurant.michelin.fr/2a7gjv9/carre-des-feuillants-paris-01",
    "chef": "Alain Dutournier",
    "star": 2
  },
  {
    "name": "Le Hittau",
    "thoroughfare": "1 rue du Nouaou",
    "postalCode": "40230",
    "city": "SAINT-VINCENT-DE-TYROSSE",
    "uri": "https://restaurant.michelin.fr/2d9288s/le-hittau-saint-vincent-de-tyrosse",
    "chef": "Yannick Duc",
    "star": 1
  },
  {
    "name": "Dominique Bouchet",
    "thoroughfare": "11 Rue Treilhard",
    "postalCode": "75008",
    "city": "Paris",
    "uri": "https://restaurant.michelin.fr/2doe0bh/dominique-bouchet-paris-08",
    "chef": "Dominique Bouchet",
    "star": 1
  },
  {
    "name": "Mirazur",
    "thoroughfare": "30, Avenue Aristide Briand",
    "postalCode": "06500",
    "city": "Menton",
    "uri": "https://restaurant.michelin.fr/2d440f7/mirazur-menton",
    "chef": "Mauro Colagreco",
    "star": 2
  },
  {
    "name": "G.a. au Manoir de Rétival",
    "thoroughfare": "2 rue St. Clair",
    "postalCode": "76490",
    "city": "Caudebec-en-Caux",
    "uri": "https://restaurant.michelin.fr/9rnckmj/ga-au-manoir-de-retival-caudebec-en-caux",
    "chef": "David Goerne",
    "star": 1
  },
  {
    "name": "Gill",
    "thoroughfare": "9 quai de la Bourse",
    "postalCode": "76000",
    "city": "Rouen",
    "uri": "https://restaurant.michelin.fr/2aqe7bm/gill-rouen",
    "chef": "Gilles Tournadre",
    "star": 2
  },
  {
    "name": "Le Magasin aux Vivres",
    "thoroughfare": "5 Avenue Ney",
    "postalCode": "57000",
    "city": "Metz",
    "uri": "https://restaurant.michelin.fr/2dse7wh/le-magasin-aux-vivres-metz",
    "chef": "Christophe Dufossé",
    "star": 1
  },
  {
    "name": "La Marelle",
    "thoroughfare": "1593 av. de Lyon",
    "postalCode": "01960",
    "city": "Péronnas",
    "uri": "https://restaurant.michelin.fr/28zbkc6/la-marelle-peronnas",
    "chef": "Didier Goiffon",
    "star": 1
  },
  {
    "name": "La Dame de Pic",
    "thoroughfare": "20 Rue du Louvre",
    "postalCode": "75001",
    "city": "Paris 01",
    "uri": "https://restaurant.michelin.fr/jgnpf8y/la-dame-de-pic-paris-01",
    "chef": "Anne-Sophie Pic",
    "star": 1
  },
  {
    "name": "Le Pressoir",
    "thoroughfare": "7 r. de l'Hôpital",
    "postalCode": "56890",
    "city": "Saint-Avé",
    "uri": "https://restaurant.michelin.fr/2b6sa1u/le-pressoir-saint-ave",
    "chef": "Vincent David",
    "star": 1
  },
  {
    "name": "Château de Pray",
    "thoroughfare": "Rue du Cèdre",
    "postalCode": "37400",
    "city": "Amboise",
    "uri": "https://restaurant.michelin.fr/2bcbfo0/chateau-de-pray-amboise",
    "chef": "Arnaud Philippon",
    "star": 1
  },
  {
    "name": "L'Essentiel",
    "thoroughfare": "8 r. de la Clarté",
    "postalCode": "24000",
    "city": "Périgueux",
    "uri": "https://restaurant.michelin.fr/2dwdwxo/lessentiel-perigueux",
    "chef": "Eric Vidal",
    "star": 1
  },
  {
    "name": "Brikéténia",
    "thoroughfare": "142 r. de l'Église",
    "postalCode": "64210",
    "city": "Guéthary",
    "uri": "https://restaurant.michelin.fr/2es4wcd/briketenia-guethary",
    "chef": "Martin et David Ibarboure",
    "star": 1
  },
  {
    "name": "Auberge du Vert Mont",
    "thoroughfare": "1318 r. du Mont-Noir",
    "postalCode": "59299",
    "city": "Boeschepe",
    "uri": "https://restaurant.michelin.fr/13ppe4f4/auberge-du-vert-mont-boeschepe",
    "chef": "Florent Ladeyn",
    "star": 1
  },
  {
    "name": "La Coquerie",
    "thoroughfare": "1 chemin du Cimetière-Marin",
    "postalCode": "34200",
    "city": "Sète",
    "uri": "https://restaurant.michelin.fr/9tuayn9/la-coquerie-sete",
    "chef": "Anne Majourel",
    "star": 1
  },
  {
    "name": "Le Favre d'Anne",
    "thoroughfare": "21 bd du Mar.-Foch",
    "postalCode": "49000",
    "city": "Angers",
    "uri": "https://restaurant.michelin.fr/dekdkvvj/le-favre-danne-angers",
    "chef": "Pascal Favre d'Anne",
    "star": 1
  },
  {
    "name": "Le Camélia",
    "thoroughfare": "7 quai Georges Clemenceau",
    "postalCode": "78380",
    "city": "Bougival",
    "uri": "https://restaurant.michelin.fr/2agf0d1/le-camelia-bougival",
    "chef": "Thierry Conte",
    "star": 1
  },
  {
    "name": "Le Village",
    "thoroughfare": "3 Grande-Rue",
    "postalCode": "78160",
    "city": "Marly-le-Roi",
    "uri": "https://restaurant.michelin.fr/2ahm97s/le-village-marly-le-roi",
    "chef": "Tomohiro Uido",
    "star": 1
  },
  {
    "name": "La Table d'Eugène",
    "thoroughfare": "18 r. Eugène-Sue",
    "postalCode": "75018",
    "city": "Paris",
    "uri": "https://restaurant.michelin.fr/2et2alx/la-table-deugene-paris-18",
    "chef": "Geoffroy Maillard",
    "star": 1
  },
  {
    "name": "Le Bon Accueil",
    "thoroughfare": "32 Grande-Rue",
    "postalCode": "25160",
    "city": "Malbuisson",
    "uri": "https://restaurant.michelin.fr/29v2jed/le-bon-accueil-malbuisson",
    "chef": "Marc Faivre",
    "star": 1
  },
  {
    "name": "La Rastègue",
    "thoroughfare": "48 bd du Levant",
    "postalCode": "83230",
    "city": "Bormes-les-Mimosas",
    "uri": "https://restaurant.michelin.fr/2dfjaik/la-rastegue-bormes-les-mimosas",
    "chef": "Jérôme Masson",
    "star": 1
  },
  {
    "name": "Aux Terrasses",
    "thoroughfare": "18 av. du 23-Janvier",
    "postalCode": "71700",
    "city": "Tournus",
    "uri": "https://restaurant.michelin.fr/2b44str/aux-terrasses-tournus",
    "chef": "Jean-Michel Carrette",
    "star": 1
  },
  {
    "name": "Miraflores",
    "thoroughfare": "60 r. Garibaldi",
    "postalCode": "69006",
    "city": "Lyon",
    "uri": "https://restaurant.michelin.fr/2jcivvu3/miraflores-lyon-06",
    "chef": "Carlos Camino",
    "star": 1
  },
  {
    "name": "Le Foch",
    "thoroughfare": "37 bd Foch",
    "postalCode": "51100",
    "city": "Reims",
    "uri": "https://restaurant.michelin.fr/2anjd1l/le-foch-reims",
    "chef": "Jacky Louazé",
    "star": 1
  },
  {
    "name": "Auberge du Dun",
    "thoroughfare": "3 rte de Dieppe",
    "postalCode": "76740",
    "city": "Le Bourg-Dun",
    "uri": "https://restaurant.michelin.fr/28z3n7r/auberge-du-dun-le-bourg-dun",
    "chef": "Pierre Chrétien",
    "star": 1
  },
  {
    "name": "Le Park 45",
    "thoroughfare": "45 bd de la Croisette",
    "postalCode": "06400",
    "city": "Cannes",
    "uri": "https://restaurant.michelin.fr/2e74el7/le-park-45-cannes",
    "chef": "",
    "star": 1
  },
  {
    "name": "La Marande",
    "thoroughfare": "lieu-dit Mirande",
    "postalCode": "71260",
    "city": "Montbellet",
    "uri": "https://restaurant.michelin.fr/2dcnkds/la-marande-montbellet",
    "chef": "Philippe Michel",
    "star": 1
  },
  {
    "name": "La Gloire",
    "thoroughfare": "74 av. du Gén.-de-Gaulle",
    "postalCode": "45200",
    "city": "Montargis",
    "uri": "https://restaurant.michelin.fr/29yz8b5/la-gloire-montargis",
    "chef": "Jean-Claude Martin",
    "star": 1
  },
  {
    "name": "Auberge St-Jean",
    "thoroughfare": "8 r. du Pont",
    "postalCode": "33420",
    "city": "Saint-Jean-de-Blaignac",
    "uri": "https://restaurant.michelin.fr/2athka8/auberge-st-jean-saint-jean-de-blaignac",
    "chef": "Thomas L'Hérisson",
    "star": 1
  },
  {
    "name": "Le Kléber",
    "thoroughfare": "6 r. A. -Dumont",
    "postalCode": "26400",
    "city": "Crest",
    "uri": "https://restaurant.michelin.fr/29bkalt/le-kleber-crest",
    "chef": "Sébastien Bonnet",
    "star": 1
  },
  {
    "name": "L'Aparté",
    "thoroughfare": "21 Rue de l’Europe",
    "postalCode": "31850",
    "city": "MONTRABE",
    "uri": "https://restaurant.michelin.fr/xay649ax/laparte-montrabe",
    "chef": "le Chef Jérémy Morin",
    "star": 1
  },
  {
    "name": "Auguste",
    "thoroughfare": "54 r. Bourgogne",
    "postalCode": "75007",
    "city": "Paris 07",
    "uri": "https://restaurant.michelin.fr/2dof8zp/auguste-paris-07",
    "chef": "Gaël Orieux",
    "star": 1
  },
  {
    "name": "Dyades au Domaine des Étangs",
    "thoroughfare": "Les Etangs",
    "postalCode": "16310",
    "city": "MASSIGNAC",
    "uri": "https://restaurant.michelin.fr/2f0stuh/dyades-au-domaine-des-etangs-massignac",
    "chef": "",
    "star": 1
  },
  {
    "name": "Le Cerisier",
    "thoroughfare": "3 rue de la Gare",
    "postalCode": "62840",
    "city": "LAVENTIE",
    "uri": "https://restaurant.michelin.fr/29qd0ox/le-cerisier-laventie",
    "chef": "Eric Delerue",
    "star": 1
  },
  {
    "name": "L'Auberge Basque",
    "thoroughfare": "quartier Helbarron",
    "postalCode": "64310",
    "city": "Saint-Pée-sur-Nivelle",
    "uri": "https://restaurant.michelin.fr/2efx4u4/lauberge-basque-saint-pee-sur-nivelle",
    "chef": "Cédric Béchade",
    "star": 1
  },
  {
    "name": "La Bonne Étape",
    "thoroughfare": "chemin du lac",
    "postalCode": "04160",
    "city": "Château-Arnoux",
    "uri": "https://restaurant.michelin.fr/2bp5jf6/la-bonne-etape-chateau-arnoux",
    "chef": "Jany Gleize",
    "star": 1
  },
  {
    "name": "Restaurant du Château",
    "thoroughfare": "15 avenue des Reynats",
    "postalCode": "24650",
    "city": "Chancelade",
    "uri": "https://restaurant.michelin.fr/2chv2z6/restaurant-du-chateau-chancelade",
    "chef": "HABERLAND Cyril",
    "star": 1
  },
  {
    "name": "Le Pavillon des Boulevards",
    "thoroughfare": "120 r. Croix-de-Seguey",
    "postalCode": "33000",
    "city": "Bordeaux",
    "uri": "https://restaurant.michelin.fr/28y19tl/le-pavillon-des-boulevards-bordeaux",
    "chef": "Thomas Morel",
    "star": 1
  },
  {
    "name": "Château de Courban",
    "thoroughfare": "7 rue du Lavoir",
    "postalCode": "21520",
    "city": "Courban",
    "uri": "https://restaurant.michelin.fr/2emcabb/chateau-de-courban-courban",
    "chef": "Takashi Kinoshita",
    "star": 1
  },
  {
    "name": "Pierre Gagnaire",
    "thoroughfare": "6 Rue Balzac",
    "postalCode": "75008",
    "city": "Paris 08",
    "uri": "https://restaurant.michelin.fr/2abhfav/pierre-gagnaire-paris-08",
    "chef": "Pierre GAGNAIRE",
    "star": 3
  },
  {
    "name": "William Frachot",
    "thoroughfare": "5 rue Michelet",
    "postalCode": "21000",
    "city": "DIJON",
    "uri": "https://restaurant.michelin.fr/2buprmi/william-frachot-dijon",
    "chef": "William Frachot",
    "star": 2
  },
  {
    "name": "Alain Llorca",
    "thoroughfare": "350 Route de Saint-Paul",
    "postalCode": "06480",
    "city": "La Colle-sur-Loup",
    "uri": "https://restaurant.michelin.fr/2e4vi29/alain-llorca-la-colle-sur-loup",
    "chef": "LLORCA ALAIN",
    "star": 1
  },
  {
    "name": "Le Pergolèse",
    "thoroughfare": "40 Rue Pergolèse",
    "postalCode": "75116",
    "city": "Paris",
    "uri": "https://restaurant.michelin.fr/2aeinde/le-pergolese-paris-16",
    "chef": "Stéphane Gaborieau",
    "star": 1
  },
  {
    "name": "Loiseau rive Gauche",
    "thoroughfare": "5 rue de Bourgogne",
    "postalCode": "75007",
    "city": "Paris 07",
    "uri": "https://restaurant.michelin.fr/2aaahmg/loiseau-rive-gauche-paris-07",
    "chef": "Maxime Laurenson",
    "star": 1
  },
  {
    "name": "Loiseau des Vignes",
    "thoroughfare": "31 Rue Jean Francois Maufoux",
    "postalCode": "21200",
    "city": "Beaune",
    "uri": "https://restaurant.michelin.fr/2ef8rpt/loiseau-des-vignes-beaune",
    "chef": "Haddouche Mourad",
    "star": 1
  },
  {
    "name": "La Chaumière",
    "thoroughfare": "346 av. du Mar. -Juin",
    "postalCode": "39100",
    "city": "Dole",
    "uri": "https://restaurant.michelin.fr/2buz227/la-chaumiere-dole",
    "chef": "Joël Césari",
    "star": 1
  },
  {
    "name": "Pierre Orsi",
    "thoroughfare": "Place Kléber",
    "postalCode": "69006",
    "city": "Lyon 06",
    "uri": "https://restaurant.michelin.fr/29te7ik/pierre-orsi-lyon-06",
    "chef": "Pierre Orsi",
    "star": 1
  },
  {
    "name": "Agapé",
    "thoroughfare": "51 Rue Jouffroy-d'Abbans",
    "postalCode": "75017",
    "city": "Paris 17",
    "uri": "https://restaurant.michelin.fr/2eo1t6h/agape-paris-17",
    "chef": "Yoshitaka Takayanagi",
    "star": 1
  },
  {
    "name": "Le Jardin des Remparts",
    "thoroughfare": "10 rue Hôtel-Dieu",
    "postalCode": "21200",
    "city": "Beaune",
    "uri": "https://restaurant.michelin.fr/28u6ql7/le-jardin-des-remparts-beaune",
    "chef": "Christophe Bocquillon",
    "star": 1
  },
  {
    "name": "Frédéric Doucet",
    "thoroughfare": "2 avenue de la Libération",
    "postalCode": "71120",
    "city": "Charolles",
    "uri": "https://restaurant.michelin.fr/295q5w8/frederic-doucet-charolles",
    "chef": "Frédéric Doucet",
    "star": 1
  },
  {
    "name": "Le Pré Catelan",
    "thoroughfare": "Route de Suresnes",
    "postalCode": "75016",
    "city": "Paris",
    "uri": "https://restaurant.michelin.fr/2af46v7/le-pre-catelan-paris-16",
    "chef": "Chef Frédéric Anton",
    "star": 3
  },
  {
    "name": "Auberge de l'Île Barbe",
    "thoroughfare": "1 Place Notre-Dame",
    "postalCode": "69009",
    "city": "Lyon 09",
    "uri": "https://restaurant.michelin.fr/29tj1pj/auberge-de-lile-barbe-lyon-09",
    "chef": "Jean-Christophe Ansanay-Alex",
    "star": 1
  },
  {
    "name": "Aigue Marine",
    "thoroughfare": "5 r. M. -Berthelot",
    "postalCode": "22220",
    "city": "Tréguier",
    "uri": "https://restaurant.michelin.fr/2cz1lgu/aigue-marine-treguier",
    "chef": "LAISNEY Stanislas",
    "star": 1
  },
  {
    "name": "Le 39V",
    "thoroughfare": "39 Avenue George V",
    "postalCode": "75008",
    "city": "Paris 08",
    "uri": "https://restaurant.michelin.fr/2fd19do/le-39v-paris-08",
    "chef": "Frédéric Vardon",
    "star": 1
  },
  {
    "name": "Le Saint-Estève",
    "thoroughfare": "2250 route cézanne D17",
    "postalCode": "13100",
    "city": "Le Tholonet",
    "uri": "https://restaurant.michelin.fr/2x1lce26/le-saint-esteve-le-tholonet",
    "chef": "Mathias Dandine",
    "star": 1
  },
  {
    "name": "JY'S",
    "thoroughfare": "17 r. de la Poissonnerie",
    "postalCode": "68000",
    "city": "Colmar",
    "uri": "https://restaurant.michelin.fr/298563e/jys-colmar",
    "chef": "Jean-Yves Schillinger",
    "star": 2
  },
  {
    "name": "Restaurant du Palais Royal",
    "thoroughfare": "110 Galerie de Valois - Jardin du Palais Royal",
    "postalCode": "75001",
    "city": "Paris 01",
    "uri": "https://restaurant.michelin.fr/2a7qx35/restaurant-du-palais-royal-paris-01",
    "chef": "Philip Chronopoulos",
    "star": 1
  },
  {
    "name": "Les Pêcheurs",
    "thoroughfare": "10 boulevard du Maréchal-Juin",
    "postalCode": "06600",
    "city": "Antibes",
    "uri": "https://restaurant.michelin.fr/29ol879/les-pecheurs-antibes",
    "chef": "Nicolas RONDELLI",
    "star": 1
  },
  {
    "name": "La Table de Franck Putelat",
    "thoroughfare": "80 chemin des Anglais",
    "postalCode": "11000",
    "city": "Carcassonne",
    "uri": "https://restaurant.michelin.fr/2e06z2s/la-table-de-franck-putelat-carcassonne",
    "chef": "Mr Franck PUTELAT",
    "star": 2
  },
  {
    "name": "Le Restaurant",
    "thoroughfare": "13 rue des Beaux-Arts",
    "postalCode": "75006",
    "city": "Paris 06",
    "uri": "https://restaurant.michelin.fr/2cfem9h/le-restaurant-paris-06",
    "chef": "Julien Montbabut",
    "star": 1
  },
  {
    "name": "Christophe Bacquié",
    "thoroughfare": "Hotel du Castellet Route des Hauts du Camp",
    "postalCode": "83330",
    "city": "Le Castellet",
    "uri": "https://restaurant.michelin.fr/2bmu0gi/christophe-bacquie-le-castellet",
    "chef": "Christophe Bacquié",
    "star": 3
  },
  {
    "name": "Paul Bocuse",
    "thoroughfare": "40 Quai de la Plage",
    "postalCode": "69660",
    "city": "Collonges-au-Mont-d'Or",
    "uri": "https://restaurant.michelin.fr/29tbf1t/paul-bocuse-collonges-au-mont-dor",
    "chef": "Paul BOCUSE",
    "star": 3
  },
  {
    "name": "L'Orangerie du Château",
    "thoroughfare": "1 Avenue du Docteur Jean Laigret",
    "postalCode": "41000",
    "city": "Blois",
    "uri": "https://restaurant.michelin.fr/28xeo4n/lorangerie-du-chateau-blois",
    "chef": "Jean-Marc Molveaux",
    "star": 1
  },
  {
    "name": "Fanny Rey & Jonathan Wahid",
    "thoroughfare": "12, boulevard Mirabeau",
    "postalCode": "13210",
    "city": "SAINT REMY DE PROVENCE",
    "uri": "https://restaurant.michelin.fr/389tiwsv/fanny-rey-jonathan-wahid-saint-remy-de-provence",
    "chef": "Fanny Rey & Jonathan Wahid",
    "star": 1
  },
  {
    "name": "Les Tablettes de Jean-Louis Nomicos",
    "thoroughfare": "16 Avenue Bugeaud",
    "postalCode": "75016",
    "city": "Paris",
    "uri": "https://restaurant.michelin.fr/2fdwgd3/les-tablettes-de-jean-louis-nomicos-paris-16",
    "chef": "Jean-Louis Nomicos",
    "star": 1
  },
  {
    "name": "Hostellerie la Montagne",
    "thoroughfare": "10 rue Pisseloup",
    "postalCode": "52330",
    "city": "COLOMBEY-LES-DEUX-EGLISES",
    "uri": "https://restaurant.michelin.fr/298i34w/hostellerie-la-montagne-colombey-les-deux-eglises",
    "chef": "Jean-Baptiste Natali",
    "star": 1
  },
  {
    "name": "Entre Vigne et Garrigue",
    "thoroughfare": "600 route de Saint Bruno",
    "postalCode": "30131",
    "city": "Pujaut",
    "uri": "https://restaurant.michelin.fr/2etuup9/entre-vigne-et-garrigue-pujaut",
    "chef": "Serge et Maxime Chenet",
    "star": 1
  },
  {
    "name": "Au Vieux Couvent",
    "thoroughfare": "6 r. des Chanoines",
    "postalCode": "67860",
    "city": "Rhinau",
    "uri": "https://restaurant.michelin.fr/2aogs9u/au-vieux-couvent-rhinau",
    "chef": "Alexis Albrecht",
    "star": 1
  },
  {
    "name": "Le Bouche à Oreille",
    "thoroughfare": "11 r. de la Chapelle",
    "postalCode": "91150",
    "city": "Boutervilliers",
    "uri": "https://restaurant.michelin.fr/s5edw9g/le-bouche-oreille-boutervilliers",
    "chef": "Aymeric Dreux",
    "star": 1
  },
  {
    "name": "Le Refuge des Gourmets",
    "thoroughfare": "90 route des Framboises",
    "postalCode": "74140",
    "city": "Machilly",
    "uri": "https://restaurant.michelin.fr/29uv8a7/le-refuge-des-gourmets-machilly",
    "chef": "Jean-Marie et Hubert Chanove",
    "star": 1
  },
  {
    "name": "Maximin Hellio",
    "thoroughfare": "64 Rue Gambetta",
    "postalCode": "14800",
    "city": "DEAUVILLE",
    "uri": "https://restaurant.michelin.fr/u945qtuv/maximin-hellio-deauville",
    "chef": "Hellio Maximin",
    "star": 1
  },
  {
    "name": "Greuze",
    "thoroughfare": "1 r. A. Thibaudet",
    "postalCode": "71700",
    "city": "Tournus",
    "uri": "https://restaurant.michelin.fr/3uonmfw/greuze-tournus",
    "chef": "Yohann Chapuis",
    "star": 1
  },
  {
    "name": "L'Oasis",
    "thoroughfare": "6 rue Jean-Honoré Carle",
    "postalCode": "06210",
    "city": "La Napoule",
    "uri": "https://restaurant.michelin.fr/29v9df2/loasis-mandelieu-la-napoule",
    "chef": "Stéphane, Antoine et François Raimbault",
    "star": 2
  },
  {
    "name": "JAN",
    "thoroughfare": "12 Rue Lascaris",
    "postalCode": "06000",
    "city": "Nice",
    "uri": "https://restaurant.michelin.fr/38z104i7/jan-nice",
    "chef": "Jan Hendrik van der Westhuizen",
    "star": 1
  },
  {
    "name": "Une Table au Sud",
    "thoroughfare": "2 quai du Port",
    "postalCode": "13002",
    "city": "Marseille",
    "uri": "https://restaurant.michelin.fr/29w4kky/une-table-au-sud-marseille-02",
    "chef": "Ludovic Turac",
    "star": 1
  },
  {
    "name": "Hostellerie Les Gorges de Pennafort",
    "thoroughfare": "8660 RD 25",
    "postalCode": "83830",
    "city": "Callas",
    "uri": "https://restaurant.michelin.fr/2blmwvy/hostellerie-les-gorges-de-pennafort-callas",
    "chef": "Philippe Da Silva",
    "star": 1
  },
  {
    "name": "Auberge La Pomme d'Api",
    "thoroughfare": "49 r. Verderel",
    "postalCode": "29250",
    "city": "Saint-Pol-de-Léon",
    "uri": "https://restaurant.michelin.fr/2aw36e7/auberge-la-pomme-dapi-saint-pol-de-leon",
    "chef": "Jérémie Le Calvez",
    "star": 1
  },
  {
    "name": "La Madeleine",
    "thoroughfare": "1 Rue Alsace-Lorraine",
    "postalCode": "89100",
    "city": "Sens",
    "uri": "https://restaurant.michelin.fr/2azofoh/la-madeleine-sens",
    "chef": "Patrick Gauthier",
    "star": 1
  },
  {
    "name": "Le Corot",
    "thoroughfare": "55 Rue de Versailles",
    "postalCode": "92410",
    "city": "VILLE-D'AVRAY",
    "uri": "https://restaurant.michelin.fr/2aiulws5/le-corot-ville-davray",
    "chef": "Rémi Chambard",
    "star": 1
  },
  {
    "name": "Le Relais des Moines",
    "thoroughfare": "route de Ste-Roseline",
    "postalCode": "83460",
    "city": "Les Arcs",
    "uri": "https://restaurant.michelin.fr/28qae64/le-relais-des-moines-les-arcs",
    "chef": "Sébastien Sanjou",
    "star": 1
  },
  {
    "name": "Cyril Attrazic",
    "thoroughfare": "10 rte du Languedoc",
    "postalCode": "48130",
    "city": "Aumont-Aubrac",
    "uri": "https://restaurant.michelin.fr/28rd58x/cyril-attrazic-aumont-aubrac",
    "chef": "ATTRAZIC Cyril",
    "star": 1
  },
  {
    "name": "Pont de l'Ouysse",
    "thoroughfare": "D23",
    "postalCode": "46200",
    "city": "Lacave",
    "uri": "https://restaurant.michelin.fr/29p8ja1/pont-de-louysse-lacave",
    "chef": "Daniel et Stéphane Chambon",
    "star": 1
  },
  {
    "name": "Les Hautes Roches",
    "thoroughfare": "86 quai de Loire",
    "postalCode": "37210",
    "city": "Rochecorbon",
    "uri": "https://restaurant.michelin.fr/2cyg6yb/les-hautes-roches-rochecorbon",
    "chef": "Didier Edon",
    "star": 1
  },
  {
    "name": "La Table du Connétable",
    "thoroughfare": "4 Rue du Connétable",
    "postalCode": "60500",
    "city": "Chantilly",
    "uri": "https://restaurant.michelin.fr/jgutdlg/la-table-du-connetable-chantilly",
    "chef": "Julien Lucas",
    "star": 1
  },
  {
    "name": "La Chassagnette",
    "thoroughfare": "route du Sambuc",
    "postalCode": "13200",
    "city": "Arles",
    "uri": "https://restaurant.michelin.fr/28qr6q2/la-chassagnette-arles",
    "chef": "",
    "star": 1
  },
  {
    "name": "Qui plume la Lune",
    "thoroughfare": "50 r. Amelot",
    "postalCode": "75011",
    "city": "Paris 11",
    "uri": "https://restaurant.michelin.fr/jh83esx/qui-plume-la-lune-paris-11",
    "chef": "Jacky Ribault",
    "star": 1
  },
  {
    "name": "Le Passe Temps",
    "thoroughfare": "52 Rue Tronchet",
    "postalCode": "69006",
    "city": "Lyon",
    "uri": "https://restaurant.michelin.fr/44ahwpa/le-passe-temps-lyon-06",
    "chef": "Younghoon Lee",
    "star": 1
  },
  {
    "name": "Likoké",
    "thoroughfare": "7 rte de Païolive",
    "postalCode": "07140",
    "city": "Les Vans",
    "uri": "https://restaurant.michelin.fr/1ad26y4c/likoke-les-vans",
    "chef": "Piet Huysentruyt",
    "star": 1
  },
  {
    "name": "La Table du 11",
    "thoroughfare": "8 rue de la chancellerie",
    "postalCode": "78000",
    "city": "Versailles",
    "uri": "https://restaurant.michelin.fr/d4dm7ddr/la-table-du-11-versailles",
    "chef": "Jean-Baptiste Lavergne-Morazzani",
    "star": 1
  },
  {
    "name": "Albert 1er",
    "thoroughfare": "38 rte du Bouchet",
    "postalCode": "74400",
    "city": "Chamonix-Mont-Blanc",
    "uri": "https://restaurant.michelin.fr/2bnvpvu/albert-1er-chamonix-mont-blanc",
    "chef": "Pierre Maillet",
    "star": 2
  },
  {
    "name": "Le Champ des Lunes",
    "thoroughfare": "route de Roquefraîche",
    "postalCode": "84360",
    "city": "Lauris",
    "uri": "https://restaurant.michelin.fr/ua2fx9zg/le-champ-des-lunes-lauris",
    "chef": "Jérôme FAURE",
    "star": 1
  },
  {
    "name": "La Balette",
    "thoroughfare": "rte de Port-Vendres",
    "postalCode": "66190",
    "city": "Collioure",
    "uri": "https://restaurant.michelin.fr/2dlsvt0/la-balette-collioure",
    "chef": "Frederic Bacquie",
    "star": 1
  },
  {
    "name": "Prairial",
    "thoroughfare": "11 Rue Chavanne",
    "postalCode": "69001",
    "city": "Lyon",
    "uri": "https://restaurant.michelin.fr/cpiyfjc0/prairial-lyon",
    "chef": "Gaëtan Gentil",
    "star": 1
  },
  {
    "name": "L'Atelier Yssoirien",
    "thoroughfare": "39 Boulevard Triozon-Bayle",
    "postalCode": "63500",
    "city": "Issoire",
    "uri": "https://restaurant.michelin.fr/akc6ovv/latelier-yssoirien-issoire",
    "chef": "Dorian Van Bronkhorst",
    "star": 1
  },
  {
    "name": "Maison Christian Étienne",
    "thoroughfare": "10 Rue de Mons",
    "postalCode": "84000",
    "city": "Avignon",
    "uri": "https://restaurant.michelin.fr/28s2o1u/maison-christian-etienne-avignon",
    "chef": "Guilhem Sevin",
    "star": 1
  },
  {
    "name": "Le Vivier",
    "thoroughfare": "800 cours F. Peyre (rte de Carpentras)",
    "postalCode": "84800",
    "city": "L'Isle-sur-la-Sorgue",
    "uri": "https://restaurant.michelin.fr/29nsjme/le-vivier-lisle-sur-la-sorgue",
    "chef": "ROMAIN GANDOLPHE",
    "star": 1
  },
  {
    "name": "Auberge de la Brie",
    "thoroughfare": "14 av. Alphonse Boulingre",
    "postalCode": "77860",
    "city": "Couilly-Pont-aux-Dames",
    "uri": "https://restaurant.michelin.fr/29ask7o/auberge-de-la-brie-couilly-pont-aux-dames",
    "chef": "Alain Pavard",
    "star": 1
  },
  {
    "name": "Quai des Saveurs",
    "thoroughfare": "69 rue de la Gare",
    "postalCode": "57300",
    "city": "Hagondange",
    "uri": "https://restaurant.michelin.fr/2e9sbx2/quai-des-saveurs-hagondange",
    "chef": "Frédéric Sandrini",
    "star": 1
  },
  {
    "name": "Buerehiesel",
    "thoroughfare": "dans le parc de l'Orangerie",
    "postalCode": "67000",
    "city": "Strasbourg",
    "uri": "https://restaurant.michelin.fr/2b0sgrs/buerehiesel-strasbourg",
    "chef": "Eric Westermann",
    "star": 1
  },
  {
    "name": "Astrance",
    "thoroughfare": "4 r. Beethoven",
    "postalCode": "75016",
    "city": "Paris",
    "uri": "https://restaurant.michelin.fr/2aeq3md/astrance-paris-16",
    "chef": "Pascal Barbot",
    "star": 3
  },
  {
    "name": "Serge Vieira",
    "thoroughfare": "Château du Couffour",
    "postalCode": "15110",
    "city": "Chaudes-Aigues",
    "uri": "https://restaurant.michelin.fr/2ey495p/serge-vieira-chaudes-aigues",
    "chef": "",
    "star": 2
  },
  {
    "name": "La Liégeoise",
    "thoroughfare": "digue de mer",
    "postalCode": "62930",
    "city": "Wimereux",
    "uri": "https://restaurant.michelin.fr/2fa1zgi202/la-liegeoise-wimereux",
    "chef": "Benjamin Delpierre",
    "star": 1
  },
  {
    "name": "Paloma",
    "thoroughfare": "47 Avenue du Moulin de la Croix",
    "postalCode": "06250",
    "city": "Mougins",
    "uri": "https://restaurant.michelin.fr/280mq6yn/paloma-mougins",
    "chef": "Nicolas DECHERCHI",
    "star": 2
  },
  {
    "name": "La Tour des Vents",
    "thoroughfare": "Le Moulin de Malfourat",
    "postalCode": "24240",
    "city": "Monbazillac",
    "uri": "https://restaurant.michelin.fr/28vws7k/la-tour-des-vents-monbazillac",
    "chef": "Damien Fagette",
    "star": 1
  },
  {
    "name": "Patrick Jeffroy",
    "thoroughfare": "20 rue du Kelenn",
    "postalCode": "29660",
    "city": "Carantec",
    "uri": "https://restaurant.michelin.fr/2bm9rwc/patrick-jeffroy-carantec",
    "chef": "Patrick Jeffroy",
    "star": 2
  },
  {
    "name": "Mère Brazier",
    "thoroughfare": "12 rue Royale",
    "postalCode": "69001",
    "city": "LYON",
    "uri": "https://restaurant.michelin.fr/2et3r6g/mere-brazier-lyon",
    "chef": "Mathieu Viannay",
    "star": 2
  },
  {
    "name": "Le Violon d'Ingres",
    "thoroughfare": "135 Rue Saint-Dominique",
    "postalCode": "75007",
    "city": "Paris",
    "uri": "https://restaurant.michelin.fr/2aa5u1w/le-violon-dingres-paris-07",
    "chef": "Christian Constant",
    "star": 1
  },
  {
    "name": "Le Moulin du Roc",
    "thoroughfare": "Avenue Eugène Le Roy",
    "postalCode": "24530",
    "city": "Champagnac-de-Belair",
    "uri": "https://restaurant.michelin.fr/2bk7w2q/le-moulin-du-roc-champagnac-de-belair",
    "chef": "Alain Gardillou",
    "star": 1
  },
  {
    "name": "Mathieu Pacaud - Histoires",
    "thoroughfare": "85 Avenue Kléber",
    "postalCode": "75016",
    "city": "Paris",
    "uri": "https://restaurant.michelin.fr/raf8m6mo/mathieu-pacaud-histoires-paris-16",
    "chef": "Mathieu Pacaud",
    "star": 2
  },
  {
    "name": "Têtedoie",
    "thoroughfare": "4 Rue Professeur Pierre Marion",
    "postalCode": "69005",
    "city": "Lyon 05",
    "uri": "https://restaurant.michelin.fr/29tfnmd288/tetedoie-lyon-05",
    "chef": "Christian Têtedoie",
    "star": 1
  },
  {
    "name": "Le Cloître",
    "thoroughfare": "Le Cloitre",
    "postalCode": "04300",
    "city": "Mane",
    "uri": "https://restaurant.michelin.fr/2ep5ghq/le-cloitre-mane",
    "chef": "Jerome Roy",
    "star": 1
  },
  {
    "name": "Sur Mesure par Thierry Marx",
    "thoroughfare": "251 Rue Saint Honoré",
    "postalCode": "75001",
    "city": "Paris",
    "uri": "https://restaurant.michelin.fr/6f226za/sur-mesure-par-thierry-marx-paris-01",
    "chef": "Thierry Marx",
    "star": 2
  },
  {
    "name": "L'Almandin",
    "thoroughfare": "Boulevard de l'Almandin",
    "postalCode": "66750",
    "city": "Saint-Cyprien",
    "uri": "https://restaurant.michelin.fr/2as8r3a/lalmandin-saint-cyprien-plage",
    "chef": "Christophe Schmitt",
    "star": 1
  },
  {
    "name": "Le Quinzième - Cyril Lignac",
    "thoroughfare": "14 rue Cauchy",
    "postalCode": "75015",
    "city": "Paris",
    "uri": "https://restaurant.michelin.fr/2dtfbbi/le-quinzieme-cyril-lignac-paris-15",
    "chef": "Cyril Lignac",
    "star": 1
  },
  {
    "name": "Le Relais Bernard Loiseau",
    "thoroughfare": "2, rue d'Argentine",
    "postalCode": "21210",
    "city": "Saulieu",
    "uri": "https://restaurant.michelin.fr/2cur8yy/le-relais-bernard-loiseau-saulieu",
    "chef": "Patrick Bertron",
    "star": 2
  },
  {
    "name": "Hostellerie de l'Abbaye de la Celle",
    "thoroughfare": "10 Place Général de Gaulle",
    "postalCode": "83170",
    "city": "La Celle",
    "uri": "https://restaurant.michelin.fr/2bn8o1t/hostellerie-de-labbaye-de-la-celle-la-celle",
    "chef": "Nicolas Pierantoni",
    "star": 1
  },
  {
    "name": "Le Taillevent",
    "thoroughfare": "15 Rue Lamennais",
    "postalCode": "75008",
    "city": "Paris",
    "uri": "https://restaurant.michelin.fr/2ab9sgk/le-taillevent-paris-08",
    "chef": "Alain Solivérès",
    "star": 2
  },
  {
    "name": "1217",
    "thoroughfare": "le bourg",
    "postalCode": "69620",
    "city": "Bagnols",
    "uri": "https://restaurant.michelin.fr/2bfuk4c/1217-bagnols",
    "chef": "Jean-Alexandre OUARATTA",
    "star": 1
  },
  {
    "name": "Assiette Champenoise",
    "thoroughfare": "40 av. Paul Vaillant-Couturier",
    "postalCode": "51430",
    "city": "Tinqueux",
    "uri": "https://restaurant.michelin.fr/2cliodi/assiette-champenoise-tinqueux",
    "chef": "Arnaud Lallement",
    "star": 3
  },
  {
    "name": "Le Mascaret",
    "thoroughfare": "1 r. de Bas",
    "postalCode": "50560",
    "city": "Blainville-sur-Mer",
    "uri": "https://restaurant.michelin.fr/2edzchf/le-mascaret-blainville-sur-mer",
    "chef": "Philippe Hardy",
    "star": 1
  },
  {
    "name": "La Table de la Bergerie",
    "thoroughfare": "La Bergerie",
    "postalCode": "49380",
    "city": "Champ-sur-Layon",
    "uri": "https://restaurant.michelin.fr/i1i7i9b/la-table-de-la-bergerie-le-champ-sur-layon",
    "chef": "David Guitton",
    "star": 1
  },
  {
    "name": "Les Fresques",
    "thoroughfare": "13 Avenue des Mateirons",
    "postalCode": "74500",
    "city": "Évian-les-Bains",
    "uri": "https://restaurant.michelin.fr/29gdnxp256n/les-fresques-evian-les-bains",
    "chef": "Patrice Vander",
    "star": 1
  },
  {
    "name": "L'O des Vignes",
    "thoroughfare": "r. du Bourg",
    "postalCode": "71960",
    "city": "Fuissé",
    "uri": "https://restaurant.michelin.fr/3fa7ojh3/lo-des-vignes-fuisse",
    "chef": "Sébastien Chambru",
    "star": 1
  },
  {
    "name": "1920",
    "thoroughfare": "373 chemin des follières",
    "postalCode": "74120",
    "city": "Megève",
    "uri": "https://restaurant.michelin.fr/3409276/1920-megeve",
    "chef": "Julien Gatillon",
    "star": 2
  },
  {
    "name": "La Gourmandière - La Table d'Olivier",
    "thoroughfare": "D126",
    "postalCode": "56000",
    "city": "Vannes",
    "uri": "https://restaurant.michelin.fr/3n5gkk2/la-gourmandiere-la-table-dolivier-vannes",
    "chef": "Olivier Samson",
    "star": 1
  },
  {
    "name": "Auberge de l'Abbaye",
    "thoroughfare": "47 place des anciens Combattants",
    "postalCode": "01500",
    "city": "Ambronay",
    "uri": "https://restaurant.michelin.fr/2dnoa2o/auberge-de-labbaye-ambronay",
    "chef": "Ivan Lavaux",
    "star": 1
  },
  {
    "name": "Les Ducs de Lorraine",
    "thoroughfare": "5 av. Provence",
    "postalCode": "88000",
    "city": "Épinal",
    "uri": "https://restaurant.michelin.fr/29fq33a/les-ducs-de-lorraine-epinal",
    "chef": "Stéphane Ringer et Rémi Gornet",
    "star": 1
  },
  {
    "name": "La Table d'Uzès",
    "thoroughfare": "18 rue du Docteur Blanchard",
    "postalCode": "30700",
    "city": "Uzès",
    "uri": "https://restaurant.michelin.fr/1ss80t3t/la-table-duzes-uzes",
    "chef": "",
    "star": 1
  },
  {
    "name": "AM par Alexandre Mazzia",
    "thoroughfare": "9 rue François Rocca",
    "postalCode": "13008",
    "city": "Marseille",
    "uri": "https://restaurant.michelin.fr/4gq15sff/am-par-alexandre-mazzia-marseille-08",
    "chef": "Alexandre Mazzia",
    "star": 1
  },
  {
    "name": "Les Cèdres",
    "thoroughfare": "25 Rue Henri MACHON",
    "postalCode": "26600",
    "city": "Granges-les-Beaumont",
    "uri": "https://restaurant.michelin.fr/2appio4/les-cedres-granges-les-beaumont",
    "chef": "Jacques Bertrand",
    "star": 2
  },
  {
    "name": "Les Clefs d'Argent",
    "thoroughfare": "333 Avenue des Martyrs de la Résistance",
    "postalCode": "40000",
    "city": "Mont-de-Marsan",
    "uri": "https://restaurant.michelin.fr/2e0bvx8/les-clefs-dargent-mont-de-marsan",
    "chef": "Christophe Dupouy",
    "star": 1
  },
  {
    "name": "Grand Hôtel du Lion d'Or",
    "thoroughfare": "69 r. Clemenceau",
    "postalCode": "41200",
    "city": "Romorantin-Lanthenay",
    "uri": "https://restaurant.michelin.fr/2cn0867/grand-hotel-du-lion-dor-romorantin-lanthenay",
    "chef": "Didier Clément",
    "star": 1
  },
  {
    "name": "Dominique Bucaille",
    "thoroughfare": "715 av. des Savels",
    "postalCode": "04100",
    "city": "Manosque",
    "uri": "https://restaurant.michelin.fr/nwxo8h9/dominique-bucaille-manosque",
    "chef": "Bucaille Dominique",
    "star": 1
  },
  {
    "name": "Le Cinq",
    "thoroughfare": "31 av. George V",
    "postalCode": "75008",
    "city": "Paris 08",
    "uri": "https://restaurant.michelin.fr/2ab2thp/le-cinq-paris-08",
    "chef": "Christian Le Squer",
    "star": 3
  },
  {
    "name": "René et Maxime Meilleur",
    "thoroughfare": "Saint Marcel",
    "postalCode": "73440",
    "city": "Saint-Martin-de-Belleville",
    "uri": "https://restaurant.michelin.fr/2avet55/rene-et-maxime-meilleur-saint-martin-de-belleville",
    "chef": "René et Maxime Meilleur",
    "star": 3
  },
  {
    "name": "Auberge St-Laurent",
    "thoroughfare": "1 rue Fontaine",
    "postalCode": "68510",
    "city": "Sierentz",
    "uri": "https://restaurant.michelin.fr/2b05ga9/auberge-st-laurent-sierentz",
    "chef": "Laurent Arbeit",
    "star": 1
  },
  {
    "name": "Le Clair de la Plume",
    "thoroughfare": "2 Place du Mail",
    "postalCode": "26230",
    "city": "Grignan",
    "uri": "https://restaurant.michelin.fr/2faahd5/le-clair-de-la-plume-grignan",
    "chef": "Julien ALLANO, Chef de Cuisine",
    "star": 1
  },
  {
    "name": "L'Amphitryon",
    "thoroughfare": "chemin de Gramont",
    "postalCode": "31770",
    "city": "Colomiers",
    "uri": "https://restaurant.michelin.fr/2b3pf5k/lamphitryon-colomiers",
    "chef": "Yannick Delpech",
    "star": 1
  },
  {
    "name": "Le Jardin des Plumes",
    "thoroughfare": "1 Rue du Milieu",
    "postalCode": "27620",
    "city": "Giverny",
    "uri": "https://restaurant.michelin.fr/omm63qr/le-jardin-des-plumes-giverny",
    "chef": "Albert Riera pour Eric Guerin",
    "star": 1
  },
  {
    "name": "Assa",
    "thoroughfare": "189 Quai Ulysse Besnard",
    "postalCode": "41000",
    "city": "Blois",
    "uri": "https://restaurant.michelin.fr/3m0pjn8/assa-blois",
    "chef": "Fumiko et Anthony Maubert",
    "star": 1
  },
  {
    "name": "L'Atelier de Jean-Luc Rabanel",
    "thoroughfare": "7 r. des Carmes",
    "postalCode": "13200",
    "city": "Arles",
    "uri": "https://restaurant.michelin.fr/2e06dui/latelier-de-jean-luc-rabanel-arles",
    "chef": "Jean-Luc Rabanel",
    "star": 2
  },
  {
    "name": "L'Impertinent",
    "thoroughfare": "5, rue d'Alsace",
    "postalCode": "64200",
    "city": "Biarritz",
    "uri": "https://restaurant.michelin.fr/h2j2em3/limpertinent-biarritz",
    "chef": "Fabian Feldmann",
    "star": 1
  },
  {
    "name": "Le Farçon",
    "thoroughfare": "immeuble la Kalinka",
    "postalCode": "73125",
    "city": "La Tania",
    "uri": "https://restaurant.michelin.fr/2dczscn/le-farcon-la-tania",
    "chef": "Julien Machet",
    "star": 1
  },
  {
    "name": "Le Figuier de St-Esprit",
    "thoroughfare": "7, Promenade Amiral de Grasse",
    "postalCode": "06600",
    "city": "Antibes",
    "uri": "https://restaurant.michelin.fr/2ejmich/le-figuier-de-st-esprit-antibes",
    "chef": "Christian Morisset",
    "star": 1
  },
  {
    "name": "La Maison d'à Côté",
    "thoroughfare": "17 rue de Chambord",
    "postalCode": "41350",
    "city": "Montlivault",
    "uri": "https://restaurant.michelin.fr/2dxwn73/la-maison-da-cote-montlivault",
    "chef": "Christophe Hay",
    "star": 1
  },
  {
    "name": "Kasbür",
    "thoroughfare": "8 Rue de Dettwiller",
    "postalCode": "67700",
    "city": "Monswiller",
    "uri": "https://restaurant.michelin.fr/2az3rad/kasbur-monswiller",
    "chef": "Yves Kieffer",
    "star": 1
  },
  {
    "name": "Il Cortile",
    "thoroughfare": "11 r. des Franciscains",
    "postalCode": "68100",
    "city": "Mulhouse",
    "uri": "https://restaurant.michelin.fr/2dcdnms/il-cortile-mulhouse",
    "chef": "Stefano D'Onghia",
    "star": 1
  },
  {
    "name": "Le Saison",
    "thoroughfare": "1 imp. du Vieux-Bourg",
    "postalCode": "35760",
    "city": "Saint-Grégoire",
    "uri": "https://restaurant.michelin.fr/2ao631n/le-saison-saint-gregoire",
    "chef": "David Etcheverry",
    "star": 1
  },
  {
    "name": "Le Domaine de la Corniche",
    "thoroughfare": "5 rte de la Corniche",
    "postalCode": "78270",
    "city": "Rolleboise",
    "uri": "https://restaurant.michelin.fr/2cmxk0v/le-domaine-de-la-corniche-rolleboise",
    "chef": "Julien Razemon",
    "star": 1
  },
  {
    "name": "Lamartine",
    "thoroughfare": "Route du Tunnel du Chat",
    "postalCode": "73370",
    "city": "Le Bourget du Lac",
    "uri": "https://restaurant.michelin.fr/28zi7ln/lamartine-le-bourget-du-lac",
    "chef": "Pierre Marin",
    "star": 1
  },
  {
    "name": "Jérôme Nutile - Le Mas de Boudan",
    "thoroughfare": "351 Chemin du Mas de Boudan",
    "postalCode": "30000",
    "city": "Nîmes",
    "uri": "https://restaurant.michelin.fr/cne1oxue/jerome-nutile-le-mas-de-boudan-nimes",
    "chef": "Jérôme Nutile",
    "star": 1
  },
  {
    "name": "Le Petit Hôtel du Grand Large",
    "thoroughfare": "11 quai St-Ivy",
    "postalCode": "56510",
    "city": "Portivy",
    "uri": "https://restaurant.michelin.fr/2dy7rqn/le-petit-hotel-du-grand-large-portivy",
    "chef": "Hervé Bourdon",
    "star": 1
  },
  {
    "name": "La Promenade",
    "thoroughfare": "11 rue du Savoureulx",
    "postalCode": "37350",
    "city": "Le Petit-Pressigny",
    "uri": "https://restaurant.michelin.fr/2ajy6gr/la-promenade-le-petit-pressigny",
    "chef": "Fabrice et Jacky Dallais",
    "star": 1
  },
  {
    "name": "Le Raisin",
    "thoroughfare": "2 pl. M. -Poisat",
    "postalCode": "01190",
    "city": "Pont-de-Vaux",
    "uri": "https://restaurant.michelin.fr/2al9714/le-raisin-pont-de-vaux",
    "chef": "Frédéric Michel",
    "star": 1
  },
  {
    "name": "Le Patio",
    "thoroughfare": "10 bd de la Plage",
    "postalCode": "33120",
    "city": "Arcachon",
    "uri": "https://restaurant.michelin.fr/28q4ohd/le-patio-arcachon",
    "chef": "Thierry Renou",
    "star": 1
  },
  {
    "name": "Auberge Tiegezh",
    "thoroughfare": "7 Place de la Gare",
    "postalCode": "56380",
    "city": "Guer",
    "uri": "https://restaurant.michelin.fr/34milgg2/auberge-tiegezh-guer",
    "chef": "Baptiste Denieul",
    "star": 1
  },
  {
    "name": "Le Grand Cerf",
    "thoroughfare": "50 rte Nationale",
    "postalCode": "51500",
    "city": "Montchenot",
    "uri": "https://restaurant.michelin.fr/2anw751/le-grand-cerf-montchenot",
    "chef": "Dominique Giraudeau et Pascal Champion",
    "star": 1
  },
  {
    "name": "La Grande Cascade",
    "thoroughfare": "Bois de Boulogne, Carrefour de Longchamp",
    "postalCode": "75016",
    "city": "Paris",
    "uri": "https://restaurant.michelin.fr/2af5lql/la-grande-cascade-paris-16",
    "chef": "Frédéric Robert",
    "star": 1
  },
  {
    "name": "Le Jardin de Benjamin",
    "thoroughfare": "Route de Salernes",
    "postalCode": "83510",
    "city": "Lorgues",
    "uri": "https://restaurant.michelin.fr/xhr5bt96/le-jardin-de-benjamin-lorgues",
    "chef": "Benjamin Collombat",
    "star": 1
  },
  {
    "name": "Villa Archange",
    "thoroughfare": "Rue de l'Ouest",
    "postalCode": "06110",
    "city": "Le Cannet",
    "uri": "https://restaurant.michelin.fr/2f4ok2n/villa-archange-le-cannet",
    "chef": "Bruno Oger",
    "star": 2
  },
  {
    "name": "Le Carrousel",
    "thoroughfare": "14 rue du Pont de Morge",
    "postalCode": "63350",
    "city": "MARINGUES",
    "uri": "https://restaurant.michelin.fr/2dwt9zi/le-carrousel-maringues",
    "chef": "Olivier Said",
    "star": 1
  },
  {
    "name": "MaSa",
    "thoroughfare": "112 avenue Victor-Hugo",
    "postalCode": "92100",
    "city": "Boulogne-Billancourt",
    "uri": "https://restaurant.michelin.fr/2enx3bmn/masa-boulogne-billancourt",
    "chef": "Hervé Rodriguez",
    "star": 1
  },
  {
    "name": "La Gouesnière",
    "thoroughfare": "1 Le Limonay",
    "postalCode": "35350",
    "city": "Saint-Méloir-des-Ondes",
    "uri": "https://restaurant.michelin.fr/2byuiv7/la-gouesniere-saint-meloir-des-ondes",
    "chef": "Valade Olivier",
    "star": 1
  },
  {
    "name": "Anne de Bretagne",
    "thoroughfare": "163, Boulevard de la Tara",
    "postalCode": "44770",
    "city": "La Plaine-sur-Mer",
    "uri": "https://restaurant.michelin.fr/2ciults/anne-de-bretagne-la-plaine-sur-mer",
    "chef": "Mathieu Guibert",
    "star": 2
  },
  {
    "name": "Le Pré du Moulin",
    "thoroughfare": "rte de Ste-Cécile-les-Vignes",
    "postalCode": "84830",
    "city": "Sérignan-du-Comtat",
    "uri": "https://restaurant.michelin.fr/2a6bp6b/le-pre-du-moulin-serignan-du-comtat",
    "chef": "Caroline et Pascal Alonso",
    "star": 1
  },
  {
    "name": "La Scène",
    "thoroughfare": "33 Avenue George V",
    "postalCode": "75008",
    "city": "Paris",
    "uri": "https://restaurant.michelin.fr/1ore4aj2/la-scene-paris-08",
    "chef": "Stéphanie Le Quellec",
    "star": 1
  },
  {
    "name": "Villa René Lalique",
    "thoroughfare": "18 Rue Bellevue",
    "postalCode": "67290",
    "city": "Wingen-sur-Moder",
    "uri": "https://restaurant.michelin.fr/t645yf86/villa-rene-lalique-wingen-sur-moder",
    "chef": "Jean-Georges Klein",
    "star": 2
  },
  {
    "name": "Domaine de Rochevilaine",
    "thoroughfare": "à la Pointe de Pen Lan",
    "postalCode": "56190",
    "city": "Billiers",
    "uri": "https://restaurant.michelin.fr/2bij0t1/domaine-de-rochevilaine-billiers",
    "chef": "Maxime Nouail",
    "star": 1
  },
  {
    "name": "La Villa Madie",
    "thoroughfare": "av. du Revestel",
    "postalCode": "13260",
    "city": "Cassis",
    "uri": "https://restaurant.michelin.fr/2eb50c1n/la-villa-madie-cassis",
    "chef": "Dimitri Droisneau",
    "star": 2
  },
  {
    "name": "Château de Sully",
    "thoroughfare": "D6",
    "postalCode": "14400",
    "city": "Sully",
    "uri": "https://restaurant.michelin.fr/2bgynqb/chateau-de-sully-sully",
    "chef": "NIcolas FAGES",
    "star": 1
  },
  {
    "name": "1912",
    "thoroughfare": "bd de la Cahotte",
    "postalCode": "14360",
    "city": "Trouville-sur-Mer",
    "uri": "https://restaurant.michelin.fr/cns0apa3/1912-trouville-sur-mer",
    "chef": "Le chef Johan THYRIOT",
    "star": 1
  },
  {
    "name": "La Grand'Vigne",
    "thoroughfare": "chemin de Smith-Haut-Lafitte",
    "postalCode": "33650",
    "city": "Martillac",
    "uri": "https://restaurant.michelin.fr/28yhuxy/la-grandvigne-martillac",
    "chef": "Nicolas Masse",
    "star": 2
  },
  {
    "name": "Maison Kieny",
    "thoroughfare": "7 Rue du Général de Gaulle",
    "postalCode": "68400",
    "city": "Riedisheim",
    "uri": "https://restaurant.michelin.fr/2a22p1u/maison-kieny-riedisheim",
    "chef": "Jean-Marc KIENY",
    "star": 1
  },
  {
    "name": "La Chèvre d'Or",
    "thoroughfare": "r. du Barri",
    "postalCode": "06360",
    "city": "Èze",
    "uri": "https://restaurant.michelin.fr/2bwkh5l/la-chevre-dor-eze",
    "chef": "Arnaud Faye, Chef Exécutif et Julien Dugourd, Chef Pâtissier",
    "star": 2
  },
  {
    "name": "La Maison dans le Parc",
    "thoroughfare": "3 r. Ste-Catherine",
    "postalCode": "54000",
    "city": "Nancy",
    "uri": "https://restaurant.michelin.fr/2elnjes/la-maison-dans-le-parc-nancy",
    "chef": "Françoise Mutel",
    "star": 1
  },
  {
    "name": "Copenhague",
    "thoroughfare": "142 AVENUE DES CHAMPS ELYSEES",
    "postalCode": "75008",
    "city": "PARIS",
    "uri": "https://restaurant.michelin.fr/2916876/copenhague-paris-08",
    "chef": "Andreas Møller",
    "star": 1
  },
  {
    "name": "Le Vieux Logis",
    "thoroughfare": "Le Bourg",
    "postalCode": "24510",
    "city": "Trémolat",
    "uri": "https://restaurant.michelin.fr/2cz3yz2/le-vieux-logis-tremolat",
    "chef": "ARNOULD Vincent",
    "star": 1
  },
  {
    "name": "Le 1947",
    "thoroughfare": "Cheval Blanc Courchevel - Le Jardin Alpin",
    "postalCode": "73120",
    "city": "Courchevel 1850",
    "uri": "https://restaurant.michelin.fr/2eac1q1/le-1947-courchevel-1850",
    "chef": "Yannick Alléno",
    "star": 3
  },
  {
    "name": "La Table de Manville",
    "thoroughfare": "Domaine de Manville - D27",
    "postalCode": "13520",
    "city": "LES-BAUX-DE-PROVENCE",
    "uri": "https://restaurant.michelin.fr/9wstvf9t/la-table-de-manville-les-baux-de-provence",
    "chef": "Matthieu Dupuis-Baumal",
    "star": 1
  },
  {
    "name": "Fontevraud Le Restaurant",
    "thoroughfare": "38 rue St-Jean-de-l'Habit",
    "postalCode": "49590",
    "city": "FONTEVRAUD-L'ABBAYE",
    "uri": "https://restaurant.michelin.fr/9pbvgq6a/fontevraud-le-restaurant-fontevraud-labbaye",
    "chef": "Thibaut Ruggeri",
    "star": 1
  },
  {
    "name": "La Palmeraie",
    "thoroughfare": "81 Boulevard de Gigaro",
    "postalCode": "83420",
    "city": "La Croix-Valmer",
    "uri": "https://restaurant.michelin.fr/2btuhm0/la-palmeraie-la-croix-valmer",
    "chef": "Jimmy Coutel",
    "star": 1
  },
  {
    "name": "Le Grand Bleu",
    "thoroughfare": "43 av. de la Gare",
    "postalCode": "24200",
    "city": "Sarlat-la-Canéda",
    "uri": "https://restaurant.michelin.fr/2d6bc3s/le-grand-bleu-sarlat-la-caneda",
    "chef": "Maxime Lebrun",
    "star": 1
  },
  {
    "name": "Alan Geaam",
    "thoroughfare": "19 Rue Lauriston",
    "postalCode": "75016",
    "city": "Paris",
    "uri": "https://restaurant.michelin.fr/3045466/alan-geaam-paris-16",
    "chef": "Alan Geaam",
    "star": 1
  },
  {
    "name": "Le Pré - Xavier Beaudiment",
    "thoroughfare": "3 Route de la Baraque",
    "postalCode": "63830",
    "city": "Durtol",
    "uri": "https://restaurant.michelin.fr/2ev16nl/le-pre-xavier-beaudiment-durtol",
    "chef": "BEAUDIMENT Xavier",
    "star": 2
  },
  {
    "name": "Auberge des Saints Pères",
    "thoroughfare": "212 av. de Nonneville",
    "postalCode": "93600",
    "city": "Aulnay-sous-Bois",
    "uri": "https://restaurant.michelin.fr/2aga7gz/auberge-des-saints-peres-aulnay-sous-bois",
    "chef": "Jean-Claude Cahagnet",
    "star": 1
  },
  {
    "name": "Le Pavé d'Auge",
    "thoroughfare": "D49",
    "postalCode": "14430",
    "city": "Beuvron-en-Auge",
    "uri": "https://restaurant.michelin.fr/28wgjgo/le-pave-dauge-beuvron-en-auge",
    "chef": "Jérôme Bansard",
    "star": 1
  },
  {
    "name": "Auberge du Cellier",
    "thoroughfare": "1 Rue de Sainte-Eugénie",
    "postalCode": "66720",
    "city": "Montner",
    "uri": "https://restaurant.michelin.fr/2a02pjj/auberge-du-cellier-montner",
    "chef": "Pierre-Louis Marin",
    "star": 1
  },
  {
    "name": "Louison",
    "thoroughfare": "2750 route de la cride",
    "postalCode": "13610",
    "city": "Le Puy-Sainte-Réparade",
    "uri": "https://restaurant.michelin.fr/3068881/louison-le-puy-sainte-reparade",
    "chef": "Gérald Passedat",
    "star": 1
  },
  {
    "name": "La Ferme de l'Hospital",
    "thoroughfare": "rte du golf",
    "postalCode": "74160",
    "city": "Bossey",
    "uri": "https://restaurant.michelin.fr/2atzy38/la-ferme-de-lhospital-bossey",
    "chef": "Jean-Jacques Noguier",
    "star": 1
  },
  {
    "name": "La Réserve Rimbaud",
    "thoroughfare": "820 Avenue de Saint-Maur",
    "postalCode": "34000",
    "city": "Montpellier",
    "uri": "https://restaurant.michelin.fr/2d8d9p1/la-reserve-rimbaud-montpellier",
    "chef": "Charles Fontes",
    "star": 1
  },
  {
    "name": "Auberge Grand'Maison",
    "thoroughfare": "1 r. Léon-le-Cerf",
    "postalCode": "22530",
    "city": "Mûr-de-Bretagne",
    "uri": "https://restaurant.michelin.fr/2a2flya/auberge-grandmaison-mur-de-bretagne",
    "chef": "Christophe Le Fur",
    "star": 1
  },
  {
    "name": "Domaine des Séquoias",
    "thoroughfare": "54 Vie-de-Boussieu",
    "postalCode": "38300",
    "city": "Ruy",
    "uri": "https://restaurant.michelin.fr/28zo6i3/domaine-des-sequoias-ruy",
    "chef": "Eric Jambon",
    "star": 1
  },
  {
    "name": "Auberge de l'Ill",
    "thoroughfare": "2 rue de Collonges-au-Mont d'Or",
    "postalCode": "68970",
    "city": "Illhaeusern",
    "uri": "https://restaurant.michelin.fr/29nft26/auberge-de-lill-illhaeusern",
    "chef": "Marc Haeberlin",
    "star": 3
  },
  {
    "name": "Le Meurice Alain Ducasse",
    "thoroughfare": "228 Rue de Rivoli",
    "postalCode": "75001",
    "city": "Paris",
    "uri": "https://restaurant.michelin.fr/2a7d9c1/le-meurice-alain-ducasse-paris-01",
    "chef": "Alain Ducasse et Jocelyn Herland",
    "star": 2
  },
  {
    "name": "L'Auberge des Glazicks",
    "thoroughfare": "7 rue de la Plage",
    "postalCode": "29550",
    "city": "PLOMODIERN",
    "uri": "https://restaurant.michelin.fr/2akhln2/lauberge-des-glazicks-plomodiern",
    "chef": "Olivier Bellin",
    "star": 2
  },
  {
    "name": "Helen",
    "thoroughfare": "3 r.Berryer",
    "postalCode": "75008",
    "city": "Paris",
    "uri": "https://restaurant.michelin.fr/3o59i9b/helen-paris-08",
    "chef": "Sébastien Carmona Porto",
    "star": 1
  },
  {
    "name": "L'Ambroisie",
    "thoroughfare": "9 Place des Vosges",
    "postalCode": "75004",
    "city": "Paris",
    "uri": "https://restaurant.michelin.fr/2a8d13e/lambroisie-paris-04",
    "chef": "Bernard Pacaud",
    "star": 3
  },
  {
    "name": "Girardin",
    "thoroughfare": "19 Rue des Têtes",
    "postalCode": "68000",
    "city": "Colmar",
    "uri": "https://restaurant.michelin.fr/xha7r0xl/girardin-colmar",
    "chef": "Éric Girardin",
    "star": 1
  },
  {
    "name": "La Table des Merville",
    "thoroughfare": "3 place Richard",
    "postalCode": "31320",
    "city": "Castanet-Tolosan",
    "uri": "https://restaurant.michelin.fr/2b3ktxc/la-table-des-merville-castanet-tolosan",
    "chef": "Thierry Merville",
    "star": 1
  },
  {
    "name": "Le Vivarais",
    "thoroughfare": "5 avenue Expilly",
    "postalCode": "07600",
    "city": "VALS-LES-BAINS",
    "uri": "https://restaurant.michelin.fr/2fay1do/le-vivarais-vals-les-bains",
    "chef": "POLLY STEPHANE",
    "star": 1
  },
  {
    "name": "Michel Chabran - La Grande Table",
    "thoroughfare": "29 Avenue du Quarante-Cinquième Parallèle",
    "postalCode": "26600",
    "city": "Pont-de-l'Isère",
    "uri": "https://restaurant.michelin.fr/2d0la2d/michel-chabran-la-grande-table-pont-de-lisere",
    "chef": "Michel Chabran",
    "star": 1
  },
  {
    "name": "Pic",
    "thoroughfare": "285 avenue Victor Hugo",
    "postalCode": "26000",
    "city": "Valence",
    "uri": "https://restaurant.michelin.fr/2d0hddd/pic-valence",
    "chef": "Anne-Sophie Pic",
    "star": 3
  },
  {
    "name": "L'Odas",
    "thoroughfare": "Passage Maurice Lenfant",
    "postalCode": "76000",
    "city": "Rouen",
    "uri": "https://restaurant.michelin.fr/33tyod0j/lodas-rouen",
    "chef": "Olivier Da Silva",
    "star": 1
  },
  {
    "name": "Auberge du Cheval Blanc",
    "thoroughfare": "4 Route de Wissembourg",
    "postalCode": "67510",
    "city": "Lembach",
    "uri": "https://restaurant.michelin.fr/29qf1y7/auberge-du-cheval-blanc-lembach",
    "chef": "Pascal Bastian",
    "star": 2
  },
  {
    "name": "Jérôme Brochot",
    "thoroughfare": "Place Beaubernard",
    "postalCode": "71300",
    "city": "Montceau-les-Mines",
    "uri": "https://restaurant.michelin.fr/29zgkr3/jerome-brochot-montceau-les-mines",
    "chef": "Jérôme Brochot",
    "star": 1
  },
  {
    "name": "Le St-Placide",
    "thoroughfare": "6 place du poncel",
    "postalCode": "35400",
    "city": "Saint-Malo",
    "uri": "https://restaurant.michelin.fr/2av98t5/le-st-placide-saint-malo",
    "chef": "Luc Mobihan",
    "star": 1
  },
  {
    "name": "Le Gabriel",
    "thoroughfare": "42 Avenue Gabriel",
    "postalCode": "75008",
    "city": "Paris",
    "uri": "https://restaurant.michelin.fr/9sqrw32m/le-gabriel-paris-08",
    "chef": "Jérôme Banctel",
    "star": 2
  },
  {
    "name": "Le Parc Les Crayères",
    "thoroughfare": "64 Boulevard Henry Vasnier",
    "postalCode": "51100",
    "city": "Reims",
    "uri": "https://restaurant.michelin.fr/2clh5yg/le-parc-les-crayeres-reims",
    "chef": "PHILIPPE MILLE",
    "star": 2
  },
  {
    "name": "La Côte Saint-Jacques",
    "thoroughfare": "14 faubourg de Paris",
    "postalCode": "89300",
    "city": "Joigny",
    "uri": "https://restaurant.michelin.fr/2c2ma30/la-cote-saint-jacques-joigny",
    "chef": "Jean-Michel Lorain",
    "star": 2
  },
  {
    "name": "Elsa",
    "thoroughfare": "Monte-Carlo Beach - Avenue Princesse Grace",
    "postalCode": "06190",
    "city": "Roquebrune Cap-Martin",
    "uri": "https://restaurant.michelin.fr/9p2kj2b/elsa-cap-martin",
    "chef": "Paolo Sari",
    "star": 1
  },
  {
    "name": "Les Trois Soleils de Montal",
    "thoroughfare": "St-Jean-Lespinasse",
    "postalCode": "46400",
    "city": "Saint-Céré",
    "uri": "https://restaurant.michelin.fr/2coonxc/les-trois-soleils-de-montal-saint-cere",
    "chef": "Frédérik Bizat",
    "star": 1
  },
  {
    "name": "Casadelmar",
    "thoroughfare": "Route de la Plage de Palombaggia",
    "postalCode": "20137",
    "city": "Porto-Vecchio",
    "uri": "https://restaurant.michelin.fr/2dk81h5143/casadelmar-porto-vecchio",
    "chef": "Fabio Bragagnolo",
    "star": 2
  },
  {
    "name": "I Salti",
    "thoroughfare": "route du Reginu",
    "postalCode": "20226",
    "city": "Belgodère",
    "uri": "https://restaurant.michelin.fr/3ffu4gq2/i-salti-belgodere",
    "chef": "David Doury",
    "star": 1
  },
  {
    "name": "La Maison des Bois - Marc Veyrat",
    "thoroughfare": "Chemin Rural de Manigod au Col de la Croix Fry",
    "postalCode": "74230",
    "city": "Manigod",
    "uri": "https://restaurant.michelin.fr/8zgzs262/la-maison-des-bois-marc-veyrat-manigod",
    "chef": "Marc Veyrat",
    "star": 3
  },
  {
    "name": "Flaveurs",
    "thoroughfare": "32 Grande-Rue",
    "postalCode": "26000",
    "city": "Valence",
    "uri": "https://restaurant.michelin.fr/2e043qi/flaveurs-valence",
    "chef": "Baptiste Poinot",
    "star": 1
  },
  {
    "name": "Stéphane Carbone",
    "thoroughfare": "14 r. de Courtonne",
    "postalCode": "14000",
    "city": "Caen",
    "uri": "https://restaurant.michelin.fr/2enzj8x/stephane-carbone-caen",
    "chef": "",
    "star": 1
  },
  {
    "name": "Le Beaulieu",
    "thoroughfare": "34 Bis Place République",
    "postalCode": "72000",
    "city": "Le Mans",
    "uri": "https://restaurant.michelin.fr/29vchdk/le-beaulieu-le-mans",
    "chef": "Olivier Boussard",
    "star": 1
  },
  {
    "name": "L'Esquisse",
    "thoroughfare": "21 rue Royale",
    "postalCode": "74000",
    "city": "Annecy",
    "uri": "https://restaurant.michelin.fr/9tr3fvt/lesquisse-annecy",
    "chef": "Stéphane Dattrino",
    "star": 1
  },
  {
    "name": "L'Axel",
    "thoroughfare": "43 r. de France",
    "postalCode": "77300",
    "city": "Fontainebleau",
    "uri": "https://restaurant.michelin.fr/29i66ux/laxel-fontainebleau",
    "chef": "Kunihisa Goto",
    "star": 1
  },
  {
    "name": "Aida",
    "thoroughfare": "1 r. Pierre Leroux",
    "postalCode": "75007",
    "city": "Paris 07",
    "uri": "https://restaurant.michelin.fr/2dzh7q2/aida-paris-07",
    "chef": "Koji Aida",
    "star": 1
  },
  {
    "name": "Maison Jeunet",
    "thoroughfare": "9 r. de l'Hôtel-de-Ville",
    "postalCode": "39600",
    "city": "Arbois",
    "uri": "https://restaurant.michelin.fr/28pylpu/maison-jeunet-arbois",
    "chef": "Steven Naessens",
    "star": 2
  },
  {
    "name": "Auberge La Fenière",
    "thoroughfare": "D943",
    "postalCode": "84160",
    "city": "Cadenet",
    "uri": "https://restaurant.michelin.fr/29sgjsx279/auberge-la-feniere-cadenet",
    "chef": "Reine Sammut",
    "star": 1
  },
  {
    "name": "Christopher Coutanceau",
    "thoroughfare": "Promenade de la Concurrence",
    "postalCode": "17000",
    "city": "La Rochelle",
    "uri": "https://restaurant.michelin.fr/2apfrj5/christopher-coutanceau-la-rochelle",
    "chef": "CHRISTOPHER COUTANCEAU",
    "star": 2
  },
  {
    "name": "Dan B. - La Table de Ventabren",
    "thoroughfare": "r. F. -Mistral",
    "postalCode": "13122",
    "city": "Ventabren",
    "uri": "https://restaurant.michelin.fr/2b7at88/dan-b-la-table-de-ventabren-ventabren",
    "chef": "Dan Bessoudo",
    "star": 1
  },
  {
    "name": "L'Étang du Moulin",
    "thoroughfare": "5 chemin de l'Etang du Moulin",
    "postalCode": "25210",
    "city": "Bonnétage",
    "uri": "https://restaurant.michelin.fr/28xqe8v/letang-du-moulin-bonnetage",
    "chef": "Jacques Barnachon",
    "star": 1
  },
  {
    "name": "Les Trois Rochers",
    "thoroughfare": "16 rue du Phare",
    "postalCode": "29120",
    "city": "Sainte-Marine",
    "uri": "https://restaurant.michelin.fr/2bi0j2j/les-trois-rochers-sainte-marine",
    "chef": "Fréderic Claquin",
    "star": 1
  },
  {
    "name": "Une Île",
    "thoroughfare": "9 r. Max-Richard",
    "postalCode": "49000",
    "city": "Angers",
    "uri": "https://restaurant.michelin.fr/2erjwfi/une-ile-angers",
    "chef": "Gérard Bossé",
    "star": 1
  },
  {
    "name": "Pertinence",
    "thoroughfare": "29 r. de l'Exposition",
    "postalCode": "75007",
    "city": "Paris",
    "uri": "https://restaurant.michelin.fr/5sermc3/pertinence-paris-07",
    "chef": "Kwen Liew et Ryunosuke Naito",
    "star": 1
  },
  {
    "name": "Le Chateaubriand",
    "thoroughfare": "129 av. Parmentier",
    "postalCode": "75011",
    "city": "Paris",
    "uri": "https://restaurant.michelin.fr/2e6jtym/le-chateaubriand-paris-11",
    "chef": "Inaki Aizpitarte",
    "star": 1
  },
  {
    "name": "Jérôme Feck",
    "thoroughfare": "19 pl. Mgr-Tissier",
    "postalCode": "51000",
    "city": "Châlons-en-Champagne",
    "uri": "https://restaurant.michelin.fr/294k5c0/jerome-feck-chalons-en-champagne",
    "chef": "",
    "star": 1
  },
  {
    "name": "Pierre Reboul",
    "thoroughfare": "260 r. Guillaume-du-Vair",
    "postalCode": "13546",
    "city": "Aix-en-Provence",
    "uri": "https://restaurant.michelin.fr/9pmxzh3/pierre-reboul-aix-en-provence",
    "chef": "",
    "star": 1
  },
  {
    "name": "Ken Kawasaki",
    "thoroughfare": "15 r. Caulaincourt",
    "postalCode": "75018",
    "city": "Paris",
    "uri": "https://restaurant.michelin.fr/ximkypex/ken-kawasaki-paris-18",
    "chef": "",
    "star": 1
  },
  {
    "name": "Le Skiff Club",
    "thoroughfare": "1 av. Louis-Gaume",
    "postalCode": "33260",
    "city": "La Teste-de-Buch",
    "uri": "https://restaurant.michelin.fr/2851256/le-skiff-club-la-teste-de-buch",
    "chef": "",
    "star": 1
  },
  {
    "name": "Akrame",
    "thoroughfare": "7 r. Tronchet",
    "postalCode": "75008",
    "city": "Paris",
    "uri": "https://restaurant.michelin.fr/2851396/akrame-paris-08",
    "chef": "Akrame Benallal",
    "star": 1
  },
  {
    "name": "Le Grand Cap",
    "thoroughfare": "chemin du Phare",
    "postalCode": "11370",
    "city": "Leucate",
    "uri": "https://restaurant.michelin.fr/2851511/le-grand-cap-leucate",
    "chef": "Erwan Houssin",
    "star": 1
  },
  {
    "name": "Restaurant H",
    "thoroughfare": "13 r. Jean-Beausire",
    "postalCode": "75004",
    "city": "Paris",
    "uri": "https://restaurant.michelin.fr/2851556/restaurant-h-paris-04",
    "chef": "Hubert Duchenne",
    "star": 1
  },
  {
    "name": "Sushi B",
    "thoroughfare": "5 r. Rameau",
    "postalCode": "75002",
    "city": "Paris",
    "uri": "https://restaurant.michelin.fr/2852091/sushi-b-paris-02",
    "chef": "",
    "star": 1
  },
  {
    "name": "Divellec",
    "thoroughfare": "18 r. Fabert",
    "postalCode": "75007",
    "city": "Paris",
    "uri": "https://restaurant.michelin.fr/2852181/divellec-paris-07",
    "chef": "",
    "star": 1
  },
  {
    "name": "La Merise",
    "thoroughfare": "7 r. d'Eschbach",
    "postalCode": "67580",
    "city": "Laubach",
    "uri": "https://restaurant.michelin.fr/3614676/la-merise-laubach",
    "chef": "Cédric Deckert",
    "star": 1
  },
  {
    "name": "Jean Chauvel",
    "thoroughfare": "33 av. Général-Leclerc",
    "postalCode": "92100",
    "city": "Boulogne-Billancourt",
    "uri": "https://restaurant.michelin.fr/3614956/jean-chauvel-boulogne-billancourt",
    "chef": "",
    "star": 1
  },
  {
    "name": "Montée",
    "thoroughfare": "9 r. Léopold-Robert",
    "postalCode": "75014",
    "city": "Paris",
    "uri": "https://restaurant.michelin.fr/3615586/montee-paris-14",
    "chef": "Takayuki Nameura",
    "star": 1
  },
  {
    "name": "L'Auberge de Bagatelle",
    "thoroughfare": "489 av. Bollée",
    "postalCode": "72000",
    "city": "Le Mans",
    "uri": "https://restaurant.michelin.fr/3616226/lauberge-de-bagatelle-le-mans",
    "chef": "Jean-Sébastien Monné",
    "star": 1
  },
  {
    "name": "Ima",
    "thoroughfare": "20 bd de la Tour-d'Auvergne",
    "postalCode": "35000",
    "city": "Rennes",
    "uri": "https://restaurant.michelin.fr/3616751/ima-rennes",
    "chef": "Julien Lemarié",
    "star": 1
  },
  {
    "name": "Comice",
    "thoroughfare": "31 av. de Versailles",
    "postalCode": "75016",
    "city": "Paris",
    "uri": "https://restaurant.michelin.fr/3616836/comice-paris-16",
    "chef": "Noam Gedalof",
    "star": 1
  },
  {
    "name": "La Table d'Hôtes - Le Quatrième Mur",
    "thoroughfare": "2 pl. de la Comédie",
    "postalCode": "33000",
    "city": "Bordeaux",
    "uri": "https://restaurant.michelin.fr/3623606/la-table-dhotes-le-quatrieme-mur-bordeaux",
    "chef": "Philippe Etchebest",
    "star": 1
  },
  {
    "name": "Les Berceaux",
    "thoroughfare": "13 rue des Berceaux",
    "postalCode": "51200",
    "city": "Épernay",
    "uri": "https://restaurant.michelin.fr/29fhuzu/les-berceaux-epernay",
    "chef": "Patrick Michelon",
    "star": 1
  },
  {
    "name": "L'Écrin",
    "thoroughfare": "10 place de la Concorde",
    "postalCode": "75008",
    "city": "Paris",
    "uri": "https://restaurant.michelin.fr/3503291/lecrin-paris-08",
    "chef": "Christopher Hache",
    "star": 1
  },
  {
    "name": "Logis de la Cadène",
    "thoroughfare": "Place du Marche au Bois",
    "postalCode": "33330",
    "city": "Saint Emilion",
    "uri": "https://restaurant.michelin.fr/3kw7mh1/logis-de-la-cadene-saint-emilion",
    "chef": "Alexandre Baumard",
    "star": 1
  },
  {
    "name": "Apicius",
    "thoroughfare": "Marché Saint Pierre 1 étage",
    "postalCode": "63000",
    "city": "Clermont-Ferrand",
    "uri": "https://restaurant.michelin.fr/2ek9zhh/apicius-clermont-ferrand",
    "chef": "Arkadiusz Zuchmanski",
    "star": 1
  },
  {
    "name": "Les Voiles d'Or",
    "thoroughfare": "2 chemin de la Falaise",
    "postalCode": "76200",
    "city": "Dieppe",
    "uri": "https://restaurant.michelin.fr/2dtoif7/les-voiles-dor-dieppe",
    "chef": "Tristan Arhan",
    "star": 1
  },
  {
    "name": "Jean-Claude Leclerc",
    "thoroughfare": "12 rue St-Adjutor",
    "postalCode": "63000",
    "city": "Clermont-Ferrand",
    "uri": "https://restaurant.michelin.fr/297ge86/jean-claude-leclerc-clermont-ferrand",
    "chef": "Jean-Claude Leclerc",
    "star": 1
  },
  {
    "name": "Gordon Ramsay au Trianon",
    "thoroughfare": "1 bd de la Reine",
    "postalCode": "78000",
    "city": "Versailles",
    "uri": "https://restaurant.michelin.fr/2aiqpqd/gordon-ramsay-au-trianon-versailles",
    "chef": "",
    "star": 1
  },
  {
    "name": "SEPT",
    "thoroughfare": "7 pl. St-Sernin",
    "postalCode": "31000",
    "city": "Toulouse",
    "uri": "https://restaurant.michelin.fr/2b38wht/sept-toulouse",
    "chef": "Guillaume Momboisse",
    "star": 1
  },
  {
    "name": "La Pyramide-Patrick Henriroux",
    "thoroughfare": "14 Boulevard Fernand Point",
    "postalCode": "38200",
    "city": "Vienne",
    "uri": "https://restaurant.michelin.fr/2f4bg71/la-pyramide-patrick-henriroux-vienne",
    "chef": "Patrick Henriroux",
    "star": 2
  },
  {
    "name": "Restaurant des Rois",
    "thoroughfare": "5 Boulevard du Maréchal Leclerc",
    "postalCode": "06310",
    "city": "Beaulieu-sur-Mer",
    "uri": "https://restaurant.michelin.fr/2bh3p7k/restaurant-des-rois-beaulieu-sur-mer",
    "chef": "Yannick Franques",
    "star": 1
  },
  {
    "name": "L'Archeste",
    "thoroughfare": "79 rue de la Tour",
    "postalCode": "75116",
    "city": "Paris",
    "uri": "https://restaurant.michelin.fr/2852206/larcheste-paris-16",
    "chef": "Yoshiaki Ito",
    "star": 1
  },
  {
    "name": "Arpège",
    "thoroughfare": "84 Rue de Varenne",
    "postalCode": "75007",
    "city": "Paris",
    "uri": "https://restaurant.michelin.fr/2aa11xs/arpege-paris-07",
    "chef": "Alain Passard",
    "star": 3
  },
  {
    "name": "1741",
    "thoroughfare": "22 Quai des Bateliers",
    "postalCode": "67000",
    "city": "Strasbourg",
    "uri": "https://restaurant.michelin.fr/amv21i8/1741-strasbourg",
    "chef": "Fabien Raux",
    "star": 1
  },
  {
    "name": "La Grange de Belle-Église",
    "thoroughfare": "28 bd René-Aimé-Lagabrielle",
    "postalCode": "60540",
    "city": "Belle-Église",
    "uri": "https://restaurant.michelin.fr/28vem1k/la-grange-de-belle-eglise-belle-eglise",
    "chef": "Marc Duval",
    "star": 1
  },
  {
    "name": "Le Saint-James",
    "thoroughfare": "3 pl. Camille-Hostein",
    "postalCode": "33270",
    "city": "BOULIAC",
    "uri": "https://restaurant.michelin.fr/2bj8gr9/le-saint-james-bouliac",
    "chef": "Nicolas Magie",
    "star": 1
  },
  {
    "name": "Les Bories",
    "thoroughfare": "rte de l'Abbaye de Sénanque",
    "postalCode": "84220",
    "city": "Gordes",
    "uri": "https://restaurant.michelin.fr/2byq8tg/les-bories-gordes",
    "chef": "MIRER Gregory",
    "star": 1
  },
  {
    "name": "Toya",
    "thoroughfare": "av. Jean-Monnet",
    "postalCode": "57380",
    "city": "Faulquemont",
    "uri": "https://restaurant.michelin.fr/3vxe9bf/toya-faulquemont",
    "chef": "Loïc Villemin",
    "star": 1
  },
  {
    "name": "Le Kintessence",
    "thoroughfare": "Rue des Clarines",
    "postalCode": "73120",
    "city": "Courchevel 1850",
    "uri": "https://restaurant.michelin.fr/am8q9hp/le-kintessence-courchevel-1850",
    "chef": "Jean-Rémi Caillon",
    "star": 2
  },
  {
    "name": "Le 7ème Continent",
    "thoroughfare": "35 av. Gén. -de-Gaulle",
    "postalCode": "68170",
    "city": "Rixheim",
    "uri": "https://restaurant.michelin.fr/9tnfzh4/le-7eme-continent-rixheim",
    "chef": "Laurent Haller",
    "star": 1
  },
  {
    "name": "La Table Saint-Crescent",
    "thoroughfare": "route de Perpignan",
    "postalCode": "11100",
    "city": "Narbonne",
    "uri": "https://restaurant.michelin.fr/2a3kuo9/la-table-saint-crescent-narbonne",
    "chef": "Lionel Giraud",
    "star": 1
  },
  {
    "name": "Le Chabichou",
    "thoroughfare": "90 Route des Chenus",
    "postalCode": "73120",
    "city": "Courchevel 1850",
    "uri": "https://restaurant.michelin.fr/2btao3c/le-chabichou-courchevel-1850",
    "chef": "Michel Rochedy et Stéphane Buron",
    "star": 2
  },
  {
    "name": "Les Climats",
    "thoroughfare": "41 rue de Lille",
    "postalCode": "75007",
    "city": "Paris 07",
    "uri": "https://restaurant.michelin.fr/3x7v6dz/les-climats-paris-07",
    "chef": "Julien Boscus",
    "star": 1
  },
  {
    "name": "Passage 53",
    "thoroughfare": "53 passage des Panoramas",
    "postalCode": "75002",
    "city": "Paris",
    "uri": "https://restaurant.michelin.fr/2ezpxm7/passage-53-paris-02",
    "chef": "Shinichi Sato",
    "star": 2
  },
  {
    "name": "Le Kaïku",
    "thoroughfare": "17 r. de la République",
    "postalCode": "64500",
    "city": "Saint-Jean-de-Luz",
    "uri": "https://restaurant.michelin.fr/2atmq22/le-kaiku-saint-jean-de-luz",
    "chef": "Nicolas Borombo",
    "star": 1
  },
  {
    "name": "Château de Mirambeau",
    "thoroughfare": "1 Avenue des Comtes Duchatel",
    "postalCode": "17150",
    "city": "Mirambeau",
    "uri": "https://restaurant.michelin.fr/2c914ee/chateau-de-mirambeau-mirambeau",
    "chef": "",
    "star": 1
  },
  {
    "name": "Au 14 Février",
    "thoroughfare": "2 r. du Portail",
    "postalCode": "36100",
    "city": "Saint-Valentin",
    "uri": "https://restaurant.michelin.fr/2f80e2p/au-14-fevrier-saint-valentin",
    "chef": "",
    "star": 1
  },
  {
    "name": "Table des Frères Ibarboure",
    "thoroughfare": "chemin Ttalienea",
    "postalCode": "64210",
    "city": "Bidart",
    "uri": "https://restaurant.michelin.fr/28x2q9k/table-des-freres-ibarboure-bidart",
    "chef": "Xabi et Patrice Ibarboure",
    "star": 1
  },
  {
    "name": "Py-r",
    "thoroughfare": "19 descente de la Halle-aux-Poissons",
    "postalCode": "31000",
    "city": "Toulouse",
    "uri": "https://restaurant.michelin.fr/2fdyj14/py-r-toulouse",
    "chef": "Pierre Lambinon",
    "star": 1
  },
  {
    "name": "La Grenouillère",
    "thoroughfare": "19 r. de la Grenouillère",
    "postalCode": "62170",
    "city": "La Madelaine-sous-Montreuil",
    "uri": "https://restaurant.michelin.fr/2a0ne3f/la-grenouillere-la-madelaine-sous-montreuil",
    "chef": "Alexandre Gauthier",
    "star": 2
  },
  {
    "name": "Les Trois Dômes",
    "thoroughfare": "20 quai Gailleton",
    "postalCode": "69002",
    "city": "Lyon",
    "uri": "https://restaurant.michelin.fr/29svngf/les-trois-domes-lyon-02",
    "chef": "",
    "star": 1
  },
  {
    "name": "Guy Lassausaie",
    "thoroughfare": "r. de Belle-Sise",
    "postalCode": "69380",
    "city": "Chasselay",
    "uri": "https://restaurant.michelin.fr/295zuzb/guy-lassausaie-chasselay",
    "chef": "",
    "star": 2
  },
  {
    "name": "Le George",
    "thoroughfare": "31 Avenue George V",
    "postalCode": "75008",
    "city": "Paris",
    "uri": "https://restaurant.michelin.fr/9q8vl0jf/le-george-paris-08",
    "chef": "Simone Zanoni ",
    "star": 1
  },
  {
    "name": "Restaurant de Lauzun",
    "thoroughfare": "3 bd de l'Esplanade",
    "postalCode": "34150",
    "city": "Gignac",
    "uri": "https://restaurant.michelin.fr/29k1mm1/restaurant-de-lauzun-gignac",
    "chef": "Matthieu de Lauzun",
    "star": 1
  },
  {
    "name": "Le Puits St-Jacques",
    "thoroughfare": "av. Victor-Capoul",
    "postalCode": "32600",
    "city": "Pujaudran",
    "uri": "https://restaurant.michelin.fr/29nnrkd/le-puits-st-jacques-pujaudran",
    "chef": "Bernard Bach",
    "star": 2
  },
  {
    "name": "La Table d'Olivier",
    "thoroughfare": "3 r. St-Ambroise",
    "postalCode": "19100",
    "city": "Brive-la-Gaillarde",
    "uri": "https://restaurant.michelin.fr/5f24ty3/la-table-dolivier-brive-la-gaillarde",
    "chef": "Pierre Neveu",
    "star": 1
  },
  {
    "name": "L'Atelier de Joël Robuchon - Étoile",
    "thoroughfare": "133 av. des Champs-Élysées",
    "postalCode": "75008",
    "city": "Paris",
    "uri": "https://restaurant.michelin.fr/2feca5y/latelier-de-joel-robuchon-etoile-paris-08",
    "chef": "",
    "star": 1
  },
  {
    "name": "Michel Sarran",
    "thoroughfare": "21 bd A.-Duportal",
    "postalCode": "31000",
    "city": "Toulouse",
    "uri": "https://restaurant.michelin.fr/2b380z8/michel-sarran-toulouse",
    "chef": "",
    "star": 2
  },
  {
    "name": "Hostellerie de Levernois",
    "thoroughfare": "15 r. du Golf",
    "postalCode": "21200",
    "city": "Levernois",
    "uri": "https://restaurant.michelin.fr/28updvu/hostellerie-de-levernois-levernois",
    "chef": "",
    "star": 1
  },
  {
    "name": "La Table de Chaintré",
    "thoroughfare": "72 pl. du Luminaire",
    "postalCode": "71570",
    "city": "Chaintré",
    "uri": "https://restaurant.michelin.fr/294fsc5/la-table-de-chaintre-chaintre",
    "chef": "Sébastien Grospellier",
    "star": 1
  },
  {
    "name": "Le Puits du Trésor",
    "thoroughfare": "21 rte des Quatre-Châteaux",
    "postalCode": "11600",
    "city": "Lastours",
    "uri": "https://restaurant.michelin.fr/29pxfvs/le-puits-du-tresor-lastours",
    "chef": "Jean-Marc Boyer",
    "star": 1
  },
  {
    "name": "Le Bistrot de Lagarde",
    "thoroughfare": "rte d'Apt",
    "postalCode": "84400",
    "city": "Lagarde-d'Apt",
    "uri": "https://restaurant.michelin.fr/jfxt32k/le-bistrot-de-lagarde-lagarde-dapt",
    "chef": "Lloyd Tropeano",
    "star": 1
  },
  {
    "name": "Le Gambetta",
    "thoroughfare": "12 r. Gambetta",
    "postalCode": "49400",
    "city": "Saumur",
    "uri": "https://restaurant.michelin.fr/2ayqw5m/le-gambetta-saumur",
    "chef": "Mickael Pihours",
    "star": 1
  },
  {
    "name": "Michel Trama",
    "thoroughfare": "52 r. Royale",
    "postalCode": "47270",
    "city": "Puymirol",
    "uri": "https://restaurant.michelin.fr/2ckuncq/michel-trama-puymirol",
    "chef": "",
    "star": 2
  },
  {
    "name": "Le Chiquito",
    "thoroughfare": "3 r. de l'Oise, La Bonneville",
    "postalCode": "95540",
    "city": "Méry-sur-Oise",
    "uri": "https://restaurant.michelin.fr/2ago3w6/le-chiquito-mery-sur-oise",
    "chef": "Alain Mihura",
    "star": 1
  },
  {
    "name": "Au Déjeuner de Sousceyrac",
    "thoroughfare": "r. Pierre-Benoit",
    "postalCode": "46190",
    "city": "Sousceyrac",
    "uri": "https://restaurant.michelin.fr/2b0i0m7/au-dejeuner-de-sousceyrac-sousceyrac-en-quercy",
    "chef": "Patrick Lagnès",
    "star": 1
  },
  {
    "name": "Le Cercle",
    "thoroughfare": "44 bd Lahitolle",
    "postalCode": "18000",
    "city": "Bourges",
    "uri": "https://restaurant.michelin.fr/9trxkaz/le-cercle-bourges",
    "chef": "Pascal Chaupitre et Christophe Lot",
    "star": 1
  },
  {
    "name": "Pertica",
    "thoroughfare": "15 pl. de la République",
    "postalCode": "41100",
    "city": "Vendôme",
    "uri": "https://restaurant.michelin.fr/3u9bmm3c/pertica-vendome",
    "chef": "Guillaume Foucault",
    "star": 1
  },
  {
    "name": "Cayola",
    "thoroughfare": "76 promenade de Cayola",
    "postalCode": "85180",
    "city": "Talmont-Saint-Hilaire",
    "uri": "https://restaurant.michelin.fr/2arajo6/cayola-bois-de-saint-jean",
    "chef": "",
    "star": 1
  },
  {
    "name": "La Closerie",
    "thoroughfare": "bd des Platanes",
    "postalCode": "84240",
    "city": "Ansouis",
    "uri": "https://restaurant.michelin.fr/2eebgpo/la-closerie-ansouis",
    "chef": "Olivier Alemany",
    "star": 1
  },
  {
    "name": "Au Souper Fin",
    "thoroughfare": "1 rte de Clères",
    "postalCode": "76690",
    "city": "Frichemesnil",
    "uri": "https://restaurant.michelin.fr/29783wk/au-souper-fin-frichemesnil",
    "chef": "Eric Buisset",
    "star": 1
  },
  {
    "name": "Le Lièvre Gourmand",
    "thoroughfare": "28 quai du Châtelet",
    "postalCode": "45000",
    "city": "Orléans",
    "uri": "https://restaurant.michelin.fr/2f48mjv/le-lievre-gourmand-orleans",
    "chef": "Tristan Robreau",
    "star": 1
  },
  {
    "name": "Septime",
    "thoroughfare": "80 r. de Charonne",
    "postalCode": "75011",
    "city": "Paris",
    "uri": "https://restaurant.michelin.fr/3xrgyvn/septime-paris-11",
    "chef": "Bertrand Grébaut",
    "star": 1
  },
  {
    "name": "La Ribaudière",
    "thoroughfare": "2 pl. du Port",
    "postalCode": "16200",
    "city": "Bourg-Charente",
    "uri": "https://restaurant.michelin.fr/29o99va/la-ribaudiere-bourg-charente",
    "chef": "Thierry Verrat",
    "star": 1
  },
  {
    "name": "Meulien",
    "thoroughfare": "1 bis av. des Alpes",
    "postalCode": "71700",
    "city": "Tournus",
    "uri": "https://restaurant.michelin.fr/2dtylsa/meulien-tournus",
    "chef": "Valéry Meulien",
    "star": 1
  },
  {
    "name": "Le Colombier",
    "thoroughfare": "r. Loucheur",
    "postalCode": "76550",
    "city": "Offranville",
    "uri": "https://restaurant.michelin.fr/29d8fg4/le-colombier-offranville",
    "chef": "Laurent Kleczewski",
    "star": 1
  },
  {
    "name": "Nakatani",
    "thoroughfare": "27 Rue Pierre Leroux",
    "postalCode": "75007",
    "city": "PARIS",
    "uri": "https://restaurant.michelin.fr/3x81832/nakatani-paris-07",
    "chef": "Shinsuke Nakatani",
    "star": 1
  },
  {
    "name": "Le Manoir du Lys",
    "thoroughfare": "D235",
    "postalCode": "61140",
    "city": "Bagnoles-de-l'Orne",
    "uri": "https://restaurant.michelin.fr/2bfnmbt/le-manoir-du-lys-bagnoles-de-lorne-normandie",
    "chef": "Franck Quinton",
    "star": 1
  },
  {
    "name": "Auberge au Boeuf",
    "thoroughfare": "Rue de l'Eglise",
    "postalCode": "67770",
    "city": "Sessenheim",
    "uri": "https://restaurant.michelin.fr/2b00ufd/auberge-au-boeuf-sessenheim",
    "chef": "Yannick Germain",
    "star": 1
  },
  {
    "name": "Château de Mercuès",
    "thoroughfare": "Route du Château",
    "postalCode": "46090",
    "city": "Mercuès",
    "uri": "https://restaurant.michelin.fr/2blc3qr/chateau-de-mercues-mercues",
    "chef": "Julien Poisot",
    "star": 1
  },
  {
    "name": "Le Cap",
    "thoroughfare": "71 Boulevard du Général-de-Gaulle",
    "postalCode": "06230",
    "city": "SAINT-JEAN-CAP-FERRAT",
    "uri": "https://restaurant.michelin.fr/2cqc8op/le-cap-saint-jean-cap-ferrat",
    "chef": "Yoric Tièche",
    "star": 1
  },
  {
    "name": "Auberge de la Mine",
    "thoroughfare": "le Gué-Plat",
    "postalCode": "61450",
    "city": "La Ferrière-aux-Étangs",
    "uri": "https://restaurant.michelin.fr/29hyxpk/auberge-de-la-mine-gue-plat",
    "chef": "Hubert Nobis",
    "star": 1
  },
  {
    "name": "Xavier Mathieu",
    "thoroughfare": "Route de Murs",
    "postalCode": "84220",
    "city": "Joucas",
    "uri": "https://restaurant.michelin.fr/2c2u7lh/xavier-mathieu-joucas",
    "chef": "Mr Xavier Mathieu",
    "star": 1
  },
  {
    "name": "Aux Anges",
    "thoroughfare": "6 Place Georges Clemenceau",
    "postalCode": "42300",
    "city": "Roanne",
    "uri": "https://restaurant.michelin.fr/3m56yu9/aux-anges-roanne",
    "chef": "Marco Viganò",
    "star": 1
  },
  {
    "name": "L'Olivier",
    "thoroughfare": "25 Route des Carles",
    "postalCode": "83990",
    "city": "Saint-Tropez",
    "uri": "https://restaurant.michelin.fr/2css2bw/lolivier-saint-tropez",
    "chef": "COLINET PHILIPPE",
    "star": 1
  },
  {
    "name": "Le Pressoir d'Argent - Gordon Ramsay",
    "thoroughfare": "2,5 Place de la Comédie",
    "postalCode": "33000",
    "city": "Bordeaux",
    "uri": "https://restaurant.michelin.fr/2epcrm9/le-pressoir-dargent-gordon-ramsay-bordeaux",
    "chef": "Gordon Ramsay et le Chef Exécutif Gilad Peled",
    "star": 2
  },
  {
    "name": "Kei",
    "thoroughfare": "5 rue du Coq-Héron",
    "postalCode": "75001",
    "city": "Paris 01",
    "uri": "https://restaurant.michelin.fr/9tmwymw/kei-paris-01",
    "chef": "Kei Kobayashi",
    "star": 2
  },
  {
    "name": "La Fourchette des Ducs",
    "thoroughfare": "6 r. de la Gare",
    "postalCode": "67210",
    "city": "Obernai",
    "uri": "https://restaurant.michelin.fr/2a5ztne/la-fourchette-des-ducs-obernai",
    "chef": "Nicolas Stamm",
    "star": 2
  },
  {
    "name": "La Grande Maison de Bernard Magrez",
    "thoroughfare": "10 Rue Labottière",
    "postalCode": "33000",
    "city": "Bordeaux",
    "uri": "https://restaurant.michelin.fr/a7u4fcer/la-grande-maison-de-bernard-magrez-bordeaux",
    "chef": "Pierre Gagnaire",
    "star": 2
  },
  {
    "name": "La Voile",
    "thoroughfare": "chemin de la Quessine",
    "postalCode": "83350",
    "city": "Ramatuelle",
    "uri": "https://restaurant.michelin.fr/9tangja/la-voile-ramatuelle",
    "chef": "Eric Canino",
    "star": 1
  },
  {
    "name": "Les Terrasses d'Uriage",
    "thoroughfare": "pl. Déesse-Hygie",
    "postalCode": "38410",
    "city": "Uriage-les-Bains",
    "uri": "https://restaurant.michelin.fr/2b5lehi/les-terrasses-duriage-uriage-les-bains",
    "chef": "Christophe Aribert",
    "star": 2
  },
  {
    "name": "Alain Ducasse au Plaza Athénée",
    "thoroughfare": "25 avenue Montaigne",
    "postalCode": "75008",
    "city": "Paris",
    "uri": "https://restaurant.michelin.fr/2ab76wf/alain-ducasse-au-plaza-athenee-paris-08",
    "chef": "",
    "star": 3
  },
  {
    "name": "Takao Takano",
    "thoroughfare": "33 Rue Malesherbes",
    "postalCode": "69006",
    "city": "Lyon 06",
    "uri": "https://restaurant.michelin.fr/1fchzdq5/takao-takano-lyon-06",
    "chef": "Takao Takano",
    "star": 2
  },
  {
    "name": "La Ville Blanche",
    "thoroughfare": "La Ville Blanche",
    "postalCode": "22300",
    "city": "Rospez",
    "uri": "https://restaurant.michelin.fr/29pm63n/la-ville-blanche-rospez",
    "chef": "Jean-Yves Jaguin",
    "star": 1
  },
  {
    "name": "Lou Cigalon-Maison Martin",
    "thoroughfare": "6 bd Carnot",
    "postalCode": "06560",
    "city": "Valbonne",
    "uri": "https://restaurant.michelin.fr/41vsxiz/lou-cigalon-maison-martin-valbonne",
    "chef": "Christophe Martin",
    "star": 1
  },
  {
    "name": "La Roya",
    "thoroughfare": "plage de la Roya",
    "postalCode": "20217",
    "city": "Saint-Florent",
    "uri": "https://restaurant.michelin.fr/2bsyl7y/la-roya-saint-florent",
    "chef": "",
    "star": 1
  },
  {
    "name": "Le Prieuré",
    "thoroughfare": "7 pl. du Chapitre",
    "postalCode": "30400",
    "city": "Villeneuve-lès-Avignon",
    "uri": "https://restaurant.michelin.fr/2d2wqpd/le-prieure-villeneuve-les-avignon",
    "chef": "",
    "star": 1
  },
  {
    "name": "La Robe",
    "thoroughfare": "3 pl. Reveillère-Lepeaux",
    "postalCode": "85600",
    "city": "Montaigu",
    "uri": "https://restaurant.michelin.fr/3ffqpazw/la-robe-montaigu",
    "chef": "Xavier Giraudet",
    "star": 1
  },
  {
    "name": "Château Blanchard",
    "thoroughfare": "36 rte de St-Galmier",
    "postalCode": "42140",
    "city": "Chazelles-sur-Lyon",
    "uri": "https://restaurant.michelin.fr/ou4s65x/chateau-blanchard-chazelles-sur-lyon",
    "chef": "Sylvain Roux",
    "star": 1
  },
  {
    "name": "Le Pêché Gourmand",
    "thoroughfare": "2 rte de Gap",
    "postalCode": "05100",
    "city": "Briançon",
    "uri": "https://restaurant.michelin.fr/9ngaiit/le-peche-gourmand-briancon",
    "chef": "Sharon et Jimmy Frannais",
    "star": 1
  },
  {
    "name": "La Fourchette du Printemps",
    "thoroughfare": "30 r. du Printemps",
    "postalCode": "75017",
    "city": "Paris",
    "uri": "https://restaurant.michelin.fr/2f4nbgd/la-fourchette-du-printemps-paris-17",
    "chef": "Nicolas Mouton",
    "star": 1
  },
  {
    "name": "À Contre Sens",
    "thoroughfare": "8-10 r. des Croisiers",
    "postalCode": "14000",
    "city": "Caen",
    "uri": "https://restaurant.michelin.fr/3wc5nsy/contre-sens-caen",
    "chef": "Anthony Caillot",
    "star": 1
  },
  {
    "name": "Auberge Le Prieuré",
    "thoroughfare": "4 Grand'Rue",
    "postalCode": "47310",
    "city": "Moirax",
    "uri": "https://restaurant.michelin.fr/2dl7htu/auberge-le-prieure-moirax",
    "chef": "Benjamin Toursel",
    "star": 1
  },
  {
    "name": "Table - Bruno Verjus",
    "thoroughfare": "3 r. de Prague",
    "postalCode": "75012",
    "city": "Paris",
    "uri": "https://restaurant.michelin.fr/3ffvej5j/table-bruno-verjus-paris-12",
    "chef": "",
    "star": 1
  },
  {
    "name": "Haut Bonheur de la Table",
    "thoroughfare": "18 Grand-Place",
    "postalCode": "59670",
    "city": "Cassel",
    "uri": "https://restaurant.michelin.fr/6274yuk/haut-bonheur-de-la-table-cassel",
    "chef": "Eugène Hobraiche",
    "star": 1
  },
  {
    "name": "L'Éveil des Sens",
    "thoroughfare": "429 bd Paul-Lintier",
    "postalCode": "53100",
    "city": "Mayenne",
    "uri": "https://restaurant.michelin.fr/2f77d7t/leveil-des-sens-mayenne",
    "chef": "Nicolas Nobis",
    "star": 1
  },
  {
    "name": "Le Moulin des Quatre Saisons",
    "thoroughfare": "r. Gallieni",
    "postalCode": "72200",
    "city": "La Flèche",
    "uri": "https://restaurant.michelin.fr/29hrl09/le-moulin-des-quatre-saisons-la-fleche",
    "chef": "Camille Constantin",
    "star": 1
  },
  {
    "name": "ES",
    "thoroughfare": "91 r. de Grenelle",
    "postalCode": "75007",
    "city": "Paris",
    "uri": "https://restaurant.michelin.fr/27ym5i25/es-paris-07",
    "chef": "Takayuki Honjo",
    "star": 1
  },
  {
    "name": "Val d'Auge",
    "thoroughfare": "805 av. du Gén.-de-Gaulle",
    "postalCode": "59910",
    "city": "Bondues",
    "uri": "https://restaurant.michelin.fr/29rcoot/val-dauge-bondues",
    "chef": "Christophe Hagnerelle",
    "star": 1
  },
  {
    "name": "L'Alchémille",
    "thoroughfare": "53 rte de Lapoutroie",
    "postalCode": "68240",
    "city": "Kaysersberg",
    "uri": "https://restaurant.michelin.fr/ua3c2rxf/lalchemille-kaysersberg-vignoble",
    "chef": "Jérôme Jaegle",
    "star": 1
  },
  {
    "name": "Le Sérac",
    "thoroughfare": "22 r. de la Comtesse",
    "postalCode": "74170",
    "city": "Saint-Gervais-les-Bains",
    "uri": "https://restaurant.michelin.fr/2di661r/le-serac-saint-gervais-les-bains",
    "chef": "Raphaël Le Mancq",
    "star": 1
  },
  {
    "name": "La Bastide St-Antoine",
    "thoroughfare": "48 av. Henri-Dunant",
    "postalCode": "06130",
    "city": "Grasse",
    "uri": "https://restaurant.michelin.fr/29ktfvn/la-bastide-st-antoine-grasse",
    "chef": "Jacques Chibois",
    "star": 1
  },
  {
    "name": "Ed.Em",
    "thoroughfare": "4 imp. Chenevottes",
    "postalCode": "21190",
    "city": "Chassagne-Montrachet",
    "uri": "https://restaurant.michelin.fr/295xqfd/edem-chassagne-montrachet",
    "chef": "Edouard Mignot",
    "star": 1
  },
  {
    "name": "Antoine",
    "thoroughfare": "10 av. de New-York",
    "postalCode": "75116",
    "city": "Paris 16",
    "uri": "https://restaurant.michelin.fr/2euo0rk/antoine-paris-16",
    "chef": "Thibault Sombardier",
    "star": 1
  },
  {
    "name": "L'Épuisette",
    "thoroughfare": "158 Vallon-des-Auffes",
    "postalCode": "13007",
    "city": "Marseille",
    "uri": "https://restaurant.michelin.fr/29w1hx9/lepuisette-marseille-07",
    "chef": "Guillaume SOURRIEU",
    "star": 1
  },
  {
    "name": "Flocons de Sel",
    "thoroughfare": "1775 rte du Leutaz",
    "postalCode": "74120",
    "city": "Megève",
    "uri": "https://restaurant.michelin.fr/29wzk9t/flocons-de-sel-megeve",
    "chef": "Emmanuel Renaut",
    "star": 3
  },
  {
    "name": "Auberge à la Bonne Idée",
    "thoroughfare": "3 rue des Meuniers",
    "postalCode": "60350",
    "city": "SAINT-JEAN-AUX-BOIS",
    "uri": "https://restaurant.michelin.fr/2ak8isu/auberge-la-bonne-idee-saint-jean-aux-bois",
    "chef": "Yves Giustinani",
    "star": 1
  },
  {
    "name": "Le Carré d'Alethius",
    "thoroughfare": "4 r. Paul-Bertois",
    "postalCode": "07800",
    "city": "Charmes-sur-Rhône",
    "uri": "https://restaurant.michelin.fr/2fa4jx5/le-carre-dalethius-charmes-sur-rhone",
    "chef": "Olivier Samin",
    "star": 1
  },
  {
    "name": "Cobéa",
    "thoroughfare": "11 r. Raymond Losserand",
    "postalCode": "75014",
    "city": "Paris 14",
    "uri": "https://restaurant.michelin.fr/2adr3mu/cobea-paris-14",
    "chef": "Philippe Bélissent",
    "star": 1
  },
  {
    "name": "Auberge Frankenbourg",
    "thoroughfare": "13 r. Gén. de Gaulle",
    "postalCode": "67730",
    "city": "La Vancelle",
    "uri": "https://restaurant.michelin.fr/29qv5p8/auberge-frankenbourg-la-vancelle",
    "chef": "Sébastien Buecher",
    "star": 1
  },
  {
    "name": "Alcyone",
    "thoroughfare": "1 Place Daviel",
    "postalCode": "13002",
    "city": "MARSEILLE",
    "uri": "https://restaurant.michelin.fr/3f9eksg5n/alcyone-marseille-02",
    "chef": "Lionel Levy",
    "star": 1
  },
  {
    "name": "Les Terrasses de Lyon",
    "thoroughfare": "25, montée Saint BArthelémy",
    "postalCode": "69005",
    "city": "Lyon 05",
    "uri": "https://restaurant.michelin.fr/29t2ib7/les-terrasses-de-lyon-lyon-05",
    "chef": "David Delsart",
    "star": 1
  },
  {
    "name": "La Nouvelle Auberge",
    "thoroughfare": "9 route Nationale",
    "postalCode": "68230",
    "city": "Wihr-au-Val",
    "uri": "https://restaurant.michelin.fr/2a2adlj/la-nouvelle-auberge-wihr-au-val",
    "chef": "Bernard Leray",
    "star": 1
  },
  {
    "name": "Château d'Adoménil",
    "thoroughfare": "",
    "postalCode": "54300",
    "city": "Lunéville",
    "uri": "https://restaurant.michelin.fr/2c5ztru/chateau-dadomenil-luneville",
    "chef": "Cyril Leclerc",
    "star": 1
  },
  {
    "name": "Hostellerie de Plaisance",
    "thoroughfare": "5 place du Clocher",
    "postalCode": "33330",
    "city": "Saint-Emilion",
    "uri": "https://restaurant.michelin.fr/2cp6y7n/hostellerie-de-plaisance-saint-emilion",
    "chef": "Ronan Kervarrec",
    "star": 2
  },
  {
    "name": "Le Strasbourg",
    "thoroughfare": "24 r. du Col. -Teyssier",
    "postalCode": "57230",
    "city": "Bitche",
    "uri": "https://restaurant.michelin.fr/28x69qn/le-strasbourg-bitche",
    "chef": "Lutz Janisch",
    "star": 1
  },
  {
    "name": "L'Escarbille",
    "thoroughfare": "8 Rue de Vélizy",
    "postalCode": "92190",
    "city": "Meudon",
    "uri": "https://restaurant.michelin.fr/2dtzs6c/lescarbille-meudon",
    "chef": "Régis Douysset",
    "star": 1
  },
  {
    "name": "Alliance",
    "thoroughfare": "5 Rue de Poissy",
    "postalCode": "75005",
    "city": "Paris",
    "uri": "https://restaurant.michelin.fr/t4cp5kaa/alliance-paris-05",
    "chef": "Toshitaka Omiya",
    "star": 1
  },
  {
    "name": "Sylvestre",
    "thoroughfare": "79 rue St-Dominique",
    "postalCode": "75007",
    "city": "Paris",
    "uri": "https://restaurant.michelin.fr/2fe7j1g/sylvestre-paris-07",
    "chef": "Sylvestre Wahid",
    "star": 2
  },
  {
    "name": "Au 14 Février",
    "thoroughfare": "Le Plâtre-Durand",
    "postalCode": "71570",
    "city": "Saint-Amour-Bellevue",
    "uri": "https://restaurant.michelin.fr/3ffziwd6/au-14-fevrier-platre-durand",
    "chef": "Masafumi Hamano",
    "star": 2
  },
  {
    "name": "L'Orée de la Forêt",
    "thoroughfare": "255 r. de la Forêt",
    "postalCode": "60600",
    "city": "Étouy",
    "uri": "https://restaurant.michelin.fr/297c2t4/loree-de-la-foret-etouy",
    "chef": "Nicolas Leclercq",
    "star": 1
  },
  {
    "name": "Palm Beach",
    "thoroughfare": "route des Iles Sanguinaires",
    "postalCode": "20000",
    "city": "Ajaccio",
    "uri": "https://restaurant.michelin.fr/299lkwi1/palm-beach-ajaccio",
    "chef": "",
    "star": 1
  },
  {
    "name": "Yam'Tcha",
    "thoroughfare": "121 r. St-Honoré",
    "postalCode": "75001",
    "city": "Paris",
    "uri": "https://restaurant.michelin.fr/2ewldde/yamtcha-paris-01",
    "chef": "Adeline Grattard",
    "star": 1
  },
  {
    "name": "La Bonne Auberge",
    "thoroughfare": "15 r. Nationale",
    "postalCode": "57350",
    "city": "Stiring-Wendel",
    "uri": "https://restaurant.michelin.fr/29ifnwu/la-bonne-auberge-stiring-wendel",
    "chef": "Lydia Egloff",
    "star": 1
  },
  {
    "name": "Apicius",
    "thoroughfare": "20 r. d'Artois",
    "postalCode": "75008",
    "city": "Paris",
    "uri": "https://restaurant.michelin.fr/2affgmi/apicius-paris-08",
    "chef": "",
    "star": 1
  },
  {
    "name": "Henri et Joseph",
    "thoroughfare": "4 r. Léo-le-Bourgo",
    "postalCode": "56100",
    "city": "Lorient",
    "uri": "https://restaurant.michelin.fr/2e29zv6/henri-et-joseph-lorient",
    "chef": "Philippe Le Lay",
    "star": 1
  },
  {
    "name": "Les Pyrénées",
    "thoroughfare": "19 pl. Ch.-de-Gaulle",
    "postalCode": "64220",
    "city": "Saint-Jean-Pied-de-Port",
    "uri": "https://restaurant.michelin.fr/2cqrobi/les-pyrenees-saint-jean-pied-de-port",
    "chef": "Philippe Arrambide",
    "star": 1
  },
  {
    "name": "Saturne",
    "thoroughfare": "17 r. N.-D.-des-Victoires",
    "postalCode": "75002",
    "city": "Paris",
    "uri": "https://restaurant.michelin.fr/2fe4uol/saturne-paris-02",
    "chef": "Sven Chartier",
    "star": 1
  },
  {
    "name": "Gaya Rive Gauche par Pierre Gagnaire",
    "thoroughfare": "44 r. du Bac",
    "postalCode": "75007",
    "city": "Paris",
    "uri": "https://restaurant.michelin.fr/2aabj6o/gaya-rive-gauche-par-pierre-gagnaire-paris-07",
    "chef": "",
    "star": 1
  },
  {
    "name": "Château de la Treyne",
    "thoroughfare": "",
    "postalCode": "46200",
    "city": "Lacave",
    "uri": "https://restaurant.michelin.fr/2c38ubh/chateau-de-la-treyne-lacave",
    "chef": "",
    "star": 1
  },
  {
    "name": "Intuition",
    "thoroughfare": "1 r. Alsace-Lorraine",
    "postalCode": "50000",
    "city": "Saint-Lô",
    "uri": "https://restaurant.michelin.fr/3ffxvs0j/intuition-saint-lo",
    "chef": "Mickaël Marion",
    "star": 1
  },
  {
    "name": "Le Neuvième Art",
    "thoroughfare": "173 r. Cuvier",
    "postalCode": "69006",
    "city": "Lyon",
    "uri": "https://restaurant.michelin.fr/6pz7edt2/le-neuvieme-art-lyon-06",
    "chef": "Christophe Roure",
    "star": 2
  },
  {
    "name": "Gavroche",
    "thoroughfare": "4 r. Klein",
    "postalCode": "67000",
    "city": "Strasbourg",
    "uri": "https://restaurant.michelin.fr/2b120tk/gavroche-strasbourg",
    "chef": "Benoit Fuchs",
    "star": 1
  },
  {
    "name": "Les Tables de Gaspard",
    "thoroughfare": "r. Principale",
    "postalCode": "05600",
    "city": "St-Crépin",
    "uri": "https://restaurant.michelin.fr/2duw4bw/les-tables-de-gaspard-saint-crepin",
    "chef": "Sébastien Corniau",
    "star": 1
  },
  {
    "name": "St-James Paris",
    "thoroughfare": "43 av. Bugeaud",
    "postalCode": "75116",
    "city": "Paris",
    "uri": "https://restaurant.michelin.fr/9qoy529/st-james-paris-paris-16",
    "chef": "",
    "star": 1
  },
  {
    "name": "Le Montgomerie",
    "thoroughfare": "356 rte de l'Altiport",
    "postalCode": "73120",
    "city": "Courchevel 1850",
    "uri": "https://restaurant.michelin.fr/29b4lr4/le-montgomerie-courchevel-1850",
    "chef": "",
    "star": 2
  },
  {
    "name": "Le Château de Sable",
    "thoroughfare": "38 r. de l'Europe",
    "postalCode": "29840",
    "city": "Porspoder",
    "uri": "https://restaurant.michelin.fr/2nnu14s6/le-chateau-de-sable-porspoder",
    "chef": "",
    "star": 1
  },
  {
    "name": "La Marine",
    "thoroughfare": "11 r. de Paris",
    "postalCode": "50270",
    "city": "Barneville-Carteret",
    "uri": "https://restaurant.michelin.fr/2bgh04f/la-marine-carteret",
    "chef": "",
    "star": 1
  },
  {
    "name": "Azimut",
    "thoroughfare": "273 r. de la Madelon",
    "postalCode": "73120",
    "city": "Courchevel-Saint-Bon",
    "uri": "https://restaurant.michelin.fr/2elahg3/azimut-le-praz",
    "chef": "François Moureaux",
    "star": 1
  },
  {
    "name": "Garance",
    "thoroughfare": "34 r. St-Dominique",
    "postalCode": "75007",
    "city": "Paris",
    "uri": "https://restaurant.michelin.fr/3ffpat6p/garance-paris-07",
    "chef": "Guillaume Iskandar",
    "star": 1
  },
  {
    "name": "Le Grand Restaurant - Jean-François Piège",
    "thoroughfare": "7 r. d'Aguesseau",
    "postalCode": "75008",
    "city": "Paris",
    "uri": "https://restaurant.michelin.fr/u5aaw2ah/le-grand-restaurant-jean-francois-piege-paris-08",
    "chef": "",
    "star": 2
  },
  {
    "name": "Rodolphe",
    "thoroughfare": "35 r. Percière",
    "postalCode": "76000",
    "city": "Rouen",
    "uri": "https://restaurant.michelin.fr/j9cof0s1/rodolphe-rouen",
    "chef": "Rodolphe Pottier",
    "star": 1
  },
  {
    "name": "L'Émulsion",
    "thoroughfare": "57 rte de Lyon",
    "postalCode": "38080",
    "city": "Saint-Alban-de-Roche",
    "uri": "https://restaurant.michelin.fr/5jdkm0u/lemulsion-saint-alban-de-roche",
    "chef": "Romain Hubert",
    "star": 1
  },
  {
    "name": "Le Clos St-Pierre",
    "thoroughfare": "pl. de la Mairie",
    "postalCode": "06650",
    "city": "Le Rouret",
    "uri": "https://restaurant.michelin.fr/2aqst5c/le-clos-st-pierre-saint-pons",
    "chef": "Daniel Ettlinger",
    "star": 1
  },
  {
    "name": "Le Pousse-Pied",
    "thoroughfare": "84 bd des Vendéens",
    "postalCode": "85360",
    "city": "La Tranche-sur-Mer",
    "uri": "https://restaurant.michelin.fr/376ocf6f/le-pousse-pied-la-tranche-sur-mer",
    "chef": "Anthony Lumet",
    "star": 1
  },
  {
    "name": "Garopapilles",
    "thoroughfare": "62 r. Abbé-de-L'Epée",
    "postalCode": "33000",
    "city": "Bordeaux",
    "uri": "https://restaurant.michelin.fr/3wsi04j3/garopapilles-bordeaux",
    "chef": "Tanguy Laviale",
    "star": 1
  },
  {
    "name": "Auberge du Paradis",
    "thoroughfare": "Le Plâtre-Durand",
    "postalCode": "71570",
    "city": "Saint-Amour-Bellevue",
    "uri": "https://restaurant.michelin.fr/2armsjm/auberge-du-paradis-platre-durand",
    "chef": "Cyril Laugier",
    "star": 1
  },
  {
    "name": "Le Pavillon",
    "thoroughfare": "av. du Verger",
    "postalCode": "62520",
    "city": "Le Touquet-Paris-Plage",
    "uri": "https://restaurant.michelin.fr/2b3t8kh/le-pavillon-le-touquet-paris-plage",
    "chef": "",
    "star": 1
  },
  {
    "name": "Racine",
    "thoroughfare": "6 pl. Godinot",
    "postalCode": "51100",
    "city": "Reims",
    "uri": "https://restaurant.michelin.fr/eiak4cnv/racine-reims",
    "chef": "Kazuyuki Tanaka",
    "star": 1
  },
  {
    "name": "Château de Vauchoux",
    "thoroughfare": "",
    "postalCode": "70170",
    "city": "Vauchoux",
    "uri": "https://restaurant.michelin.fr/2alwjjs/chateau-de-vauchoux-vauchoux",
    "chef": "Jean-Michel Turin",
    "star": 1
  },
  {
    "name": "Le Marcq",
    "thoroughfare": "944 av. de la République",
    "postalCode": "59700",
    "city": "Marcq-en-Barœul",
    "uri": "https://restaurant.michelin.fr/2dkifdh/le-marcq-marcq-en-baroeul",
    "chef": "Abdelkader Belfatmi",
    "star": 1
  },
  {
    "name": "U Santa Marina",
    "thoroughfare": "Marina di Santa Giulia",
    "postalCode": "20137",
    "city": "Porto-Vecchio",
    "uri": "https://restaurant.michelin.fr/2e7dmcj/u-santa-marina-porto-vecchio",
    "chef": "",
    "star": 1
  },
  {
    "name": "Pèir",
    "thoroughfare": "r. de la Combe",
    "postalCode": "84220",
    "city": "Gordes",
    "uri": "https://restaurant.michelin.fr/r9fvmyyv/peir-gordes",
    "chef": "",
    "star": 1
  },
  {
    "name": "Palégrié",
    "thoroughfare": "Les Ritons",
    "postalCode": "38250",
    "city": "Corrençon-en-Vercors",
    "uri": "https://restaurant.michelin.fr/2d2itah0/palegrie-correncon-en-vercors",
    "chef": "",
    "star": 1
  },
  {
    "name": "La Table by La Villa",
    "thoroughfare": "chemin de Notre-Dame-de-la-Serra",
    "postalCode": "20260",
    "city": "Calvi",
    "uri": "https://restaurant.michelin.fr/299w7ls/la-table-la-villa-calvi",
    "chef": "",
    "star": 1
  },
  {
    "name": "La Bastide de Capelongue",
    "thoroughfare": "Chemin des Cabanes",
    "postalCode": "84480",
    "city": "Bonnieux",
    "uri": "https://restaurant.michelin.fr/2bj1jms/la-bastide-de-capelongue-bonnieux",
    "chef": "Édouard Loubet",
    "star": 2
  },
  {
    "name": "L'Aquarelle",
    "thoroughfare": "71 A rte du Montil",
    "postalCode": "17920",
    "city": "Breuillet",
    "uri": "https://restaurant.michelin.fr/2dk9wkt/laquarelle-breuillet",
    "chef": "Xavier Taffart",
    "star": 1
  },
  {
    "name": "Maison Prévôt",
    "thoroughfare": "353 av. de Verdun",
    "postalCode": "84300",
    "city": "Cavaillon",
    "uri": "https://restaurant.michelin.fr/2947j86/maison-prevot-cavaillon",
    "chef": "Jean-Jacques Prévôt",
    "star": 1
  },
  {
    "name": "Avel Vor",
    "thoroughfare": "25 r. de Locmalo",
    "postalCode": "56290",
    "city": "Port-Louis",
    "uri": "https://restaurant.michelin.fr/2da93ps/avel-vor-port-louis",
    "chef": "Patrice Gahinet",
    "star": 1
  },
  {
    "name": "Ze Kitchen Galerie",
    "thoroughfare": "4 r. des Grands-Augustins",
    "postalCode": "75006",
    "city": "Paris",
    "uri": "https://restaurant.michelin.fr/2a9xcsf/ze-kitchen-galerie-paris-06",
    "chef": "William Ledeuil",
    "star": 1
  },
  {
    "name": "La Tour",
    "thoroughfare": "31 Nouvelle-Place",
    "postalCode": "18300",
    "city": "Sancerre",
    "uri": "https://restaurant.michelin.fr/2axydtb/la-tour-sancerre",
    "chef": "Baptiste Fournier",
    "star": 1
  },
  {
    "name": "Terre-Mer",
    "thoroughfare": "16 r. du Jeu-de-Paume",
    "postalCode": "56400",
    "city": "Auray",
    "uri": "https://restaurant.michelin.fr/2f8kr60/terre-mer-auray",
    "chef": "Anthony Jéhanno",
    "star": 1
  },
  {
    "name": "La Table des Blot - Auberge du Château",
    "thoroughfare": "1 Grande-Rue",
    "postalCode": "78720",
    "city": "Dampierre-en-Yvelines",
    "uri": "https://restaurant.michelin.fr/2agz71j/la-table-des-blot-auberge-du-chateau-dampierre-en-yvelines",
    "chef": "Christophe Blot",
    "star": 1
  },
  {
    "name": "Les Chênes Verts",
    "thoroughfare": "rte de Villecroze",
    "postalCode": "83690",
    "city": "Tourtour",
    "uri": "https://restaurant.michelin.fr/2b4ne7u/les-chenes-verts-tourtour",
    "chef": "",
    "star": 1
  },
  {
    "name": "La Petite Maison de Cucuron",
    "thoroughfare": "pl. de l'Étang",
    "postalCode": "84160",
    "city": "Cucuron",
    "uri": "https://restaurant.michelin.fr/29c2o3y/la-petite-maison-de-cucuron-cucuron",
    "chef": "Eric Sapet",
    "star": 1
  },
  {
    "name": "SaQuaNa",
    "thoroughfare": "22 pl. Hamelin",
    "postalCode": "14600",
    "city": "Honfleur",
    "uri": "https://restaurant.michelin.fr/2e11xi8/saquana-honfleur",
    "chef": "Alexandre Bourdas",
    "star": 2
  },
  {
    "name": "La Promenade",
    "thoroughfare": "2 promenade Jean-Jaurès",
    "postalCode": "31590",
    "city": "Verfeil",
    "uri": "https://restaurant.michelin.fr/n3jledr/la-promenade-verfeil",
    "chef": "Nicolas Thomas",
    "star": 1
  },
  {
    "name": "En Pleine Nature",
    "thoroughfare": "6 pl. de la Mairie",
    "postalCode": "31130",
    "city": "Fonsegrives",
    "uri": "https://restaurant.michelin.fr/s5y0mmq/en-pleine-nature-fonsegrives",
    "chef": "Sylvain Joffre",
    "star": 1
  },
  {
    "name": "Mariottat",
    "thoroughfare": "25 r. L.-Vivent",
    "postalCode": "47000",
    "city": "Agen",
    "uri": "https://restaurant.michelin.fr/28n68fe/mariottat-agen",
    "chef": "Éric Mariottat",
    "star": 1
  },
  {
    "name": "Roscanvec",
    "thoroughfare": "17 r. des Halles",
    "postalCode": "56000",
    "city": "Vannes",
    "uri": "https://restaurant.michelin.fr/2b6s3ty/roscanvec-vannes",
    "chef": "Thierry Seychelles",
    "star": 1
  },
  {
    "name": "Le Mas du Langoustier",
    "thoroughfare": "",
    "postalCode": "83400",
    "city": "Hyères",
    "uri": "https://restaurant.michelin.fr/2c1rglq/le-mas-du-langoustier-hyeres",
    "chef": "",
    "star": 1
  },
  {
    "name": "Umami",
    "thoroughfare": "8 r. des Dentelles",
    "postalCode": "67000",
    "city": "Strasbourg",
    "uri": "https://restaurant.michelin.fr/2ei9xex/umami-strasbourg",
    "chef": "René Fieger",
    "star": 1
  },
  {
    "name": "L'Atelier de Joël Robuchon - St-Germain",
    "thoroughfare": "5 r. de Montalembert",
    "postalCode": "75007",
    "city": "Paris",
    "uri": "https://restaurant.michelin.fr/2dduyu5/latelier-de-joel-robuchon-st-germain-paris-07",
    "chef": "",
    "star": 2
  },
  {
    "name": "Le Clocher des Pères",
    "thoroughfare": "D213",
    "postalCode": "73130",
    "city": "Saint-Martin-sur-la-Chambre",
    "uri": "https://restaurant.michelin.fr/h43i086/le-clocher-des-peres-saint-martin-sur-la-chambre",
    "chef": "Pierre Troccaz",
    "star": 1
  },
  {
    "name": "La Renaissance",
    "thoroughfare": "20 av. 2e-Division-Blindée",
    "postalCode": "61200",
    "city": "Argentan",
    "uri": "https://restaurant.michelin.fr/28qk3fo/la-renaissance-argentan",
    "chef": "Arnaud Viel",
    "star": 1
  },
  {
    "name": "Pierre",
    "thoroughfare": "7-9 rue Joseph Dufour",
    "postalCode": "71000",
    "city": "Mâcon",
    "uri": "https://restaurant.michelin.fr/29uvz3j/pierre-macon",
    "chef": "Christian Gaulin",
    "star": 1
  },
  {
    "name": "Relais Louis XIII",
    "thoroughfare": "8 Rue des Grands Augustins",
    "postalCode": "75006",
    "city": "Paris",
    "uri": "https://restaurant.michelin.fr/2a92anu/relais-louis-xiii-paris-06",
    "chef": "Manuel Martinez",
    "star": 1
  },
  {
    "name": "Rackham",
    "thoroughfare": "27 pl. Lacaze Duthiers rčs de l'église",
    "postalCode": "29680",
    "city": "ROSCOFF",
    "uri": "https://restaurant.michelin.fr/2cndbvx/rackham-roscoff",
    "chef": "Arthur Péran",
    "star": 1
  },
  {
    "name": "La Table Breizh Café",
    "thoroughfare": "7 quai Thomas",
    "postalCode": "35260",
    "city": "Cancale",
    "uri": "https://restaurant.michelin.fr/2f8ln9w/la-table-breizh-cafe-cancale",
    "chef": "Fumio KUDAKA",
    "star": 1
  },
  {
    "name": "La Grignotière",
    "thoroughfare": "6 Rue Jean Jaures",
    "postalCode": "59590",
    "city": "Raismes",
    "uri": "https://restaurant.michelin.fr/3tkmico/la-grignotiere-raismes",
    "chef": "Pascal Coulon",
    "star": 1
  },
  {
    "name": "Le Musigny",
    "thoroughfare": "90 Avenue de Liege",
    "postalCode": "59300",
    "city": "Valenciennes",
    "uri": "https://restaurant.michelin.fr/3yjthyc/le-musigny-valenciennes",
    "chef": "Emmanuel Hernandez",
    "star": 1
  },
  {
    "name": "L'Arôme",
    "thoroughfare": "3 rue St-Philippe-du-Roule",
    "postalCode": "75008",
    "city": "Paris 08",
    "uri": "https://restaurant.michelin.fr/2e8vcj7/larome-paris-08",
    "chef": "BOULLAULT THOMAS",
    "star": 1
  },
  {
    "name": "La Cachette",
    "thoroughfare": "Rue des Cévennes",
    "postalCode": "26000",
    "city": "Valence",
    "uri": "https://restaurant.michelin.fr/2dyaa0w/la-cachette-valence",
    "chef": "Masashi Ijichi",
    "star": 1
  },
  {
    "name": "La Vague d'Or",
    "thoroughfare": "Plage de Bouillabaisse",
    "postalCode": "83990",
    "city": "Saint-Tropez",
    "uri": "https://restaurant.michelin.fr/2csqkr7/la-vague-dor-saint-tropez",
    "chef": "Arnaud Donckele",
    "star": 3
  },
  {
    "name": "Le Bec au Cauchois",
    "thoroughfare": "22 Rue André Fiquet",
    "postalCode": "76540",
    "city": "Valmont",
    "uri": "https://restaurant.michelin.fr/2b6gbtl/le-bec-au-cauchois-valmont",
    "chef": "Pierre Caillet",
    "star": 1
  },
  {
    "name": "La Matelote",
    "thoroughfare": "80 Boulevard Ste Beuve",
    "postalCode": "62200",
    "city": "BOULOGNE-SUR-MER",
    "uri": "https://restaurant.michelin.fr/28yvb9u/la-matelote-boulogne-sur-mer",
    "chef": "Tony Lestienne",
    "star": 1
  },
  {
    "name": "L'Atelier du Peintre",
    "thoroughfare": "1 Rue Schongauer",
    "postalCode": "68000",
    "city": "Colmar",
    "uri": "https://restaurant.michelin.fr/2ewn3lj/latelier-du-peintre-colmar",
    "chef": "Loïc Lefebvre",
    "star": 1
  },
  {
    "name": "Château Cordeillan-Bages",
    "thoroughfare": "Route des châteaux",
    "postalCode": "33250",
    "city": "Pauillac",
    "uri": "https://restaurant.michelin.fr/2chq5p0/chateau-cordeillan-bages-pauillac",
    "chef": "Julien Lefebvre",
    "star": 1
  },
  {
    "name": "Le France",
    "thoroughfare": "8 place Cupillard",
    "postalCode": "25130",
    "city": "VILLERS-LE-LAC",
    "uri": "https://restaurant.michelin.fr/2d32mvv/le-france-villers-le-lac",
    "chef": "Hugues Droz",
    "star": 1
  },
  {
    "name": "Stéphane Tournié - Les Jardins de l'Opéra",
    "thoroughfare": "1 place du Capitole",
    "postalCode": "31000",
    "city": "Toulouse",
    "uri": "https://restaurant.michelin.fr/2b3631b/stephane-tournie-les-jardins-de-lopera-toulouse",
    "chef": "Stéphane Tournié",
    "star": 1
  },
  {
    "name": "La Table",
    "thoroughfare": "32 Rue de la Barre",
    "postalCode": "59000",
    "city": "Lille",
    "uri": "https://restaurant.michelin.fr/ua271jkd/la-table-lille",
    "chef": "Thibaut GAMBA",
    "star": 1
  },
  {
    "name": "Meurin",
    "thoroughfare": "Rue de Lillers",
    "postalCode": "62350",
    "city": "Busnes",
    "uri": "https://restaurant.michelin.fr/2dyfstx/meurin-busnes",
    "chef": "Marc Meurin",
    "star": 2
  },
  {
    "name": "Les Loges",
    "thoroughfare": "6 r. du Boeuf",
    "postalCode": "69005",
    "city": "Lyon 05",
    "uri": "https://restaurant.michelin.fr/29t3z0x/les-loges-lyon-05",
    "chef": "Anthony Bonnet",
    "star": 1
  },
  {
    "name": "Maximilien",
    "thoroughfare": "19a rte Ostheim",
    "postalCode": "68340",
    "city": "Zellenberg",
    "uri": "https://restaurant.michelin.fr/2aoyre2/maximilien-zellenberg",
    "chef": "Jean-Michel Eblin",
    "star": 1
  },
  {
    "name": "114, Faubourg",
    "thoroughfare": "114 r. Fg St-Honoré",
    "postalCode": "75008",
    "city": "Paris 08",
    "uri": "https://restaurant.michelin.fr/2f3fs2n/114-faubourg-paris-08",
    "chef": "Loïc Dantec",
    "star": 1
  },
  {
    "name": "La Table de Nans",
    "thoroughfare": "corniche du Liouquet",
    "postalCode": "13600",
    "city": "La Ciotat",
    "uri": "https://restaurant.michelin.fr/akfvyg8/la-table-de-nans-la-ciotat",
    "chef": "Nans Gaillard",
    "star": 1
  },
  {
    "name": "Le Lido",
    "thoroughfare": "42 av. Napoléon-III",
    "postalCode": "20110",
    "city": "Propriano",
    "uri": "https://restaurant.michelin.fr/29ajku0/le-lido-propriano",
    "chef": "Romuald ROYER",
    "star": 1
  },
  {
    "name": "Auberge du Pont d'Acigné",
    "thoroughfare": "D392",
    "postalCode": "35530",
    "city": "Noyal-sur-Vilaine",
    "uri": "https://restaurant.michelin.fr/2ao77e3/auberge-du-pont-dacigne-noyal-sur-vilaine",
    "chef": "Sylvain Guillemot",
    "star": 1
  },
  {
    "name": "La Table du Gourmet",
    "thoroughfare": "5 rue 1ère Armée",
    "postalCode": "68340",
    "city": "Riquewihr",
    "uri": "https://restaurant.michelin.fr/2aosxv6/la-table-du-gourmet-riquewihr",
    "chef": "Jean-Luc Brendel",
    "star": 1
  },
  {
    "name": "Le Gourmet de Sèze",
    "thoroughfare": "125 Rue de Sèze",
    "postalCode": "69006",
    "city": "Lyon",
    "uri": "https://restaurant.michelin.fr/29trkin/le-gourmet-de-seze-lyon-06",
    "chef": "Bernard Mariller",
    "star": 1
  },
  {
    "name": "Skab",
    "thoroughfare": "7 Rue de la République",
    "postalCode": "30000",
    "city": "nimes",
    "uri": "https://restaurant.michelin.fr/olnthqo/skab-nimes",
    "chef": "Alban BARBETTE et Damien SANCHEZ",
    "star": 1
  },
  {
    "name": "La Table de l'Alpaga",
    "thoroughfare": "66 Allée des Marmousets",
    "postalCode": "74120",
    "city": "Megève",
    "uri": "https://restaurant.michelin.fr/9tlmhvt/la-table-de-lalpaga-megeve",
    "chef": "Anthony Bisquerra",
    "star": 1
  },
  {
    "name": "Auberge de la Charme",
    "thoroughfare": "12 r. de la Charme",
    "postalCode": "21370",
    "city": "Prenois",
    "uri": "https://restaurant.michelin.fr/29dyqga/auberge-de-la-charme-prenois",
    "chef": "Nicolas Isnard et David Le Comte",
    "star": 1
  },
  {
    "name": "Le Saint-Martin",
    "thoroughfare": "Avenue des Templiers",
    "postalCode": "06140",
    "city": "Vence",
    "uri": "https://restaurant.michelin.fr/2d1gnwo/le-saint-martin-vence",
    "chef": "Jean-Luc Lefrançois",
    "star": 1
  },
  {
    "name": "Au Crocodile",
    "thoroughfare": "10 rue de L'Outre",
    "postalCode": "67000",
    "city": "STRASBOURG",
    "uri": "https://restaurant.michelin.fr/kl196wcf/au-crocodile-strasbourg",
    "chef": "Franck Pelux",
    "star": 1
  },
  {
    "name": "Jin",
    "thoroughfare": "6 Rue de la Sourdière",
    "postalCode": "75001",
    "city": "Paris",
    "uri": "https://restaurant.michelin.fr/1t2b08px/jin-paris-01",
    "chef": "Taku",
    "star": 1
  },
  {
    "name": "La Lorraine",
    "thoroughfare": "80 rue Principale",
    "postalCode": "57330",
    "city": "Zoufftgen",
    "uri": "https://restaurant.michelin.fr/2bavyqh/la-lorraine-zoufftgen",
    "chef": "Lucien Keff",
    "star": 1
  },
  {
    "name": "La Marine",
    "thoroughfare": "3 r. Marie-Lemonnier",
    "postalCode": "85330",
    "city": "L'Herbaudière",
    "uri": "https://restaurant.michelin.fr/29n79hz/la-marine-lherbaudiere",
    "chef": "Alexandre Couillon",
    "star": 2
  },
  {
    "name": "Le Bistro des Saveurs",
    "thoroughfare": "35 Rue de Sélestat",
    "postalCode": "67210",
    "city": "Obernai",
    "uri": "https://restaurant.michelin.fr/2a619xs/le-bistro-des-saveurs-obernai",
    "chef": "Thierry Schwartz",
    "star": 1
  },
  {
    "name": "Hervé Busset",
    "thoroughfare": "D901",
    "postalCode": "12320",
    "city": "Conques",
    "uri": "https://restaurant.michelin.fr/2brjniu/herve-busset-conques-en-rouergue",
    "chef": "HERVE BUSSET",
    "star": 1
  },
  {
    "name": "Le Belrose",
    "thoroughfare": "Boulevard des Crêtes",
    "postalCode": "83580",
    "city": "Gassin",
    "uri": "https://restaurant.michelin.fr/2ct3bc6/le-belrose-bertaud",
    "chef": "Pietro Volonté",
    "star": 1
  },
  {
    "name": "Les Prés d'Eugénie - Michel Guérard",
    "thoroughfare": "pl. de l'Impératrice",
    "postalCode": "40320",
    "city": "Eugénie-les-Bains",
    "uri": "https://restaurant.michelin.fr/29g9pvw/les-pres-deugenie-michel-guerard-eugenie-les-bains",
    "chef": "Michel Guérard",
    "star": 3
  },
  {
    "name": "Épicure",
    "thoroughfare": "112 r. Fg St-Honoré",
    "postalCode": "75008",
    "city": "Paris 08",
    "uri": "https://restaurant.michelin.fr/2ab8pfp/epicure-paris-08",
    "chef": "Eric Frechon",
    "star": 3
  },
  {
    "name": "Les Jardins de l'Espadon",
    "thoroughfare": "15 place Vendôme",
    "postalCode": "75001",
    "city": "Paris",
    "uri": "https://restaurant.michelin.fr/2a7bw8d/les-jardins-de-lespadon-paris-01",
    "chef": "Nicolas Sale",
    "star": 1
  },
  {
    "name": "Maison Lameloise",
    "thoroughfare": "36 pl. d'Armes",
    "postalCode": "71150",
    "city": "Chagny",
    "uri": "https://restaurant.michelin.fr/2bnef6m/maison-lameloise-chagny",
    "chef": "Eric Pras",
    "star": 3
  },
  {
    "name": "Penati al Baretto",
    "thoroughfare": "9 rue Balzac",
    "postalCode": "75008",
    "city": "Paris 08",
    "uri": "https://restaurant.michelin.fr/9oo4cel/penati-al-baretto-paris-08",
    "chef": "Alberico Penati",
    "star": 1
  },
  {
    "name": "La Bergerie",
    "thoroughfare": "D999",
    "postalCode": "63490",
    "city": "Sarpoil",
    "uri": "https://restaurant.michelin.fr/29nxch5/la-bergerie-sarpoil",
    "chef": "Cyrille Zen",
    "star": 1
  },
  {
    "name": "Le Gindreau",
    "thoroughfare": "D5",
    "postalCode": "46150",
    "city": "Saint-Médard",
    "uri": "https://restaurant.michelin.fr/2avrk5m/le-gindreau-saint-medard",
    "chef": "Pascal Bardet",
    "star": 2
  },
  {
    "name": "Ar Men Du",
    "thoroughfare": "47 rue des îles",
    "postalCode": "29920",
    "city": "Névez",
    "uri": "https://restaurant.michelin.fr/2dgxug2/ar-men-du-nevez",
    "chef": "Philippe Emanuelli",
    "star": 1
  },
  {
    "name": "L'Orangerie",
    "thoroughfare": "31 Avenue George-V",
    "postalCode": "75008",
    "city": "Paris",
    "uri": "https://restaurant.michelin.fr/2851286/lorangerie-paris-08",
    "chef": "David Bizet ",
    "star": 1
  },
  {
    "name": "Armani Ristorante",
    "thoroughfare": "149 Boulevard Saint-Germain",
    "postalCode": "75006",
    "city": "Paris",
    "uri": "https://restaurant.michelin.fr/3044086/armani-ristorante-paris-06",
    "chef": "Massimo Tringali",
    "star": 1
  },
  {
    "name": "Atmosphères",
    "thoroughfare": "618 Route des Tournelles",
    "postalCode": "73370",
    "city": "Le Bourget-du-Lac",
    "uri": "https://restaurant.michelin.fr/28zmco9/atmospheres-le-bourget-du-lac",
    "chef": "Alain Périllat-Mercerot",
    "star": 1
  },
  {
    "name": "Le Grand Véfour",
    "thoroughfare": "17 rue de Beaujolais",
    "postalCode": "75001",
    "city": "Paris",
    "uri": "https://restaurant.michelin.fr/2a7edmf/le-grand-vefour-paris-01",
    "chef": "Guy Martin",
    "star": 2
  },
  {
    "name": "La Galinette",
    "thoroughfare": "23 r. Jean Payra",
    "postalCode": "66000",
    "city": "Perpignan",
    "uri": "https://restaurant.michelin.fr/2ajskia/la-galinette-perpignan",
    "chef": "Christophe Comes",
    "star": 1
  },
  {
    "name": "Thierry Drapeau",
    "thoroughfare": "La Chabotterie",
    "postalCode": "85260",
    "city": "Saint-Sulpice-le-Verdon",
    "uri": "https://restaurant.michelin.fr/2dnrb62/thierry-drapeau-saint-sulpice-le-verdon",
    "chef": "THIERRY DRAPEAU",
    "star": 2
  },
  {
    "name": "Hexagone",
    "thoroughfare": "85 Avenue Kléber",
    "postalCode": "75016",
    "city": "Paris",
    "uri": "https://restaurant.michelin.fr/9yw7wqd3/hexagone-paris-16",
    "chef": "Mathieu Pacaud",
    "star": 1
  },
  {
    "name": "Auberge de Clochemerle",
    "thoroughfare": "Rue Gabriel-Chevallier",
    "postalCode": "69460",
    "city": "VAUX-EN-BEAUJOLAIS",
    "uri": "https://restaurant.michelin.fr/2dckc0s/auberge-de-clochemerle-vaux-en-beaujolais",
    "chef": "Romain Barthe",
    "star": 1
  },
  {
    "name": "Vieux Pont",
    "thoroughfare": "",
    "postalCode": "12390",
    "city": "Belcastel",
    "uri": "https://restaurant.michelin.fr/28vap07/vieux-pont-belcastel",
    "chef": "Nicole Fagegaltier et Bruno Rouquier",
    "star": 1
  },
  {
    "name": "Le Belvédère",
    "thoroughfare": "11 rte du Maquis-Jean-Pierre",
    "postalCode": "12340",
    "city": "Bozouls",
    "uri": "https://restaurant.michelin.fr/2d4rcim/le-belvedere-bozouls",
    "chef": "Guillaume Viala",
    "star": 1
  },
  {
    "name": "David Toutain",
    "thoroughfare": "29 r. Surcouf",
    "postalCode": "75007",
    "city": "Paris",
    "uri": "https://restaurant.michelin.fr/2ei5hub/david-toutain-paris-07",
    "chef": "",
    "star": 1
  },
  {
    "name": "L'Atlantide 1874 - Maison Guého",
    "thoroughfare": "5 r. de l'Hermitage",
    "postalCode": "44100",
    "city": "Nantes",
    "uri": "https://restaurant.michelin.fr/2a32200/latlantide-1874-maison-gueho-nantes",
    "chef": "Jean-Yves Guého",
    "star": 1
  },
  {
    "name": "Tour d'Argent",
    "thoroughfare": "15 quai de la Tournelle",
    "postalCode": "75005",
    "city": "Paris",
    "uri": "https://restaurant.michelin.fr/2a8xf2a/tour-dargent-paris-05",
    "chef": "",
    "star": 1
  },
  {
    "name": "Le Moulin d'Alotz",
    "thoroughfare": "chemin Alotz-Errota",
    "postalCode": "64200",
    "city": "Alotz",
    "uri": "https://restaurant.michelin.fr/28x0rz3/le-moulin-dalotz-alotz",
    "chef": "Benoit Sarthou",
    "star": 1
  },
  {
    "name": "Le Cerf",
    "thoroughfare": "30 r. du Gén.-de-Gaulle",
    "postalCode": "67520",
    "city": "Marlenheim",
    "uri": "https://restaurant.michelin.fr/2c74pw3/le-cerf-marlenheim",
    "chef": "Michel Husser et Joël Philipps",
    "star": 1
  },
  {
    "name": "Le Pily",
    "thoroughfare": "39 Grande-Rue",
    "postalCode": "50100",
    "city": "Cherbourg-en-Cotentin",
    "uri": "https://restaurant.michelin.fr/2eh8fjc/le-pily-cherbourg-en-cotentin",
    "chef": "Pierre Marion",
    "star": 1
  },
  {
    "name": "Château du Mont Joly",
    "thoroughfare": "6 r. du Mont-Joly",
    "postalCode": "39100",
    "city": "Sampans",
    "uri": "https://restaurant.michelin.fr/2ejhn11/chateau-du-mont-joly-sampans",
    "chef": "Romuald Fassenet",
    "star": 1
  },
  {
    "name": "Étincelles - La Gentilhommière",
    "thoroughfare": "",
    "postalCode": "24440",
    "city": "Sainte-Sabine",
    "uri": "https://restaurant.michelin.fr/2ejolq7/etincelles-la-gentilhommiere-sainte-sabine",
    "chef": "Vincent Lucas",
    "star": 1
  },
  {
    "name": "L'Aubergade",
    "thoroughfare": "78 rte Nationale",
    "postalCode": "80480",
    "city": "Dury",
    "uri": "https://restaurant.michelin.fr/28olvn9/laubergade-dury",
    "chef": "Eric Boutté",
    "star": 1
  },
  {
    "name": "La Table des Cordeliers",
    "thoroughfare": "1 r. des Cordeliers",
    "postalCode": "32100",
    "city": "Condom",
    "uri": "https://restaurant.michelin.fr/2d7x1hk/la-table-des-cordeliers-condom",
    "chef": "Éric Sampietro",
    "star": 1
  },
  {
    "name": "Le Jules Verne",
    "thoroughfare": "2<E>ème</E> étage Tour Eiffel",
    "postalCode": "75007",
    "city": "Paris",
    "uri": "https://restaurant.michelin.fr/2aa3qhg/le-jules-verne-paris-07",
    "chef": "",
    "star": 1
  },
  {
    "name": "Le Prieuré",
    "thoroughfare": "r. de la Mairie",
    "postalCode": "42820",
    "city": "Ambierle",
    "uri": "https://restaurant.michelin.fr/28od0rp/le-prieure-ambierle",
    "chef": "Thierry Fernandes",
    "star": 1
  },
  {
    "name": "Mon Plaisir",
    "thoroughfare": "22 lieu-dit Journal",
    "postalCode": "25190",
    "city": "Chamesol",
    "uri": "https://restaurant.michelin.fr/2d6m1yv/mon-plaisir-chamesol",
    "chef": "Christian Pilloud",
    "star": 1
  },
  {
    "name": "Au 14 Février",
    "thoroughfare": "36 r. du Bœuf",
    "postalCode": "",
    "city": "Lyon 05",
    "uri": "https://restaurant.michelin.fr/2f8f1gn/au-14-fevrier-lyon-05",
    "chef": "Tsuyoshi Arai",
    "star": 1
  },
  {
    "name": "Côté Jardin",
    "thoroughfare": "14 rte de Bourges",
    "postalCode": "45500",
    "city": "Gien",
    "uri": "https://restaurant.michelin.fr/29jyv6a/cote-jardin-gien",
    "chef": "Arnaud Billard",
    "star": 1
  },
  {
    "name": "Jérémy Galvan",
    "thoroughfare": "Rue du Boeuf",
    "postalCode": "69005",
    "city": "Lyon 05",
    "uri": "https://restaurant.michelin.fr/3plxd2e/jeremy-galvan-lyon-05",
    "chef": "",
    "star": 1
  },
  {
    "name": "Mickaël Féval",
    "thoroughfare": "11 Petite-Rue-St-Jean",
    "postalCode": "13100",
    "city": "Aix-en-Provence",
    "uri": "https://restaurant.michelin.fr/sv592kt5/mickael-feval-aix-en-provence",
    "chef": "",
    "star": 1
  },
  {
    "name": "Laurent",
    "thoroughfare": "41 av. Gabriel",
    "postalCode": "75008",
    "city": "Paris",
    "uri": "https://restaurant.michelin.fr/2abdvpo/laurent-paris-08",
    "chef": "",
    "star": 1
  },
  {
    "name": "Auberge St-Walfrid",
    "thoroughfare": "58 r. de Grosbliederstroff",
    "postalCode": "57200",
    "city": "Sarreguemines",
    "uri": "https://restaurant.michelin.fr/2ayc9n6/auberge-st-walfrid-sarreguemines",
    "chef": "Stephan Schneider",
    "star": 1
  },
  {
    "name": "Transparence \"La Table de Patrick Fréchin\"",
    "thoroughfare": "28 r. Stanislas",
    "postalCode": "54000",
    "city": "Nancy",
    "uri": "https://restaurant.michelin.fr/2jtf0iqj/transparence-la-table-de-patrick-frechin-nancy",
    "chef": "",
    "star": 1
  },
  {
    "name": "Clovis",
    "thoroughfare": "21 Grand-Rue",
    "postalCode": "06140",
    "city": "Tourrettes-sur-Loup",
    "uri": "https://restaurant.michelin.fr/2evgb1v/clovis-tourrettes-sur-loup",
    "chef": "Julien Bousseau",
    "star": 1
  },
  {
    "name": "Allium",
    "thoroughfare": "88 bd de Créac'h-Gwen",
    "postalCode": "29000",
    "city": "Quimper",
    "uri": "https://restaurant.michelin.fr/suqhhtor/allium-quimper",
    "chef": "Lionel Hénaff",
    "star": 1
  },
  {
    "name": "Maison Crouzil et Hôtel L'Écrin",
    "thoroughfare": "20 les Quais",
    "postalCode": "22130",
    "city": "Plancoët",
    "uri": "https://restaurant.michelin.fr/2akcwpg8/maison-crouzil-et-hotel-lecrin-plancoet",
    "chef": "",
    "star": 1
  },
  {
    "name": "Le Pot d'Étain",
    "thoroughfare": "4 av. de la République",
    "postalCode": "90400",
    "city": "Danjoutin",
    "uri": "https://restaurant.michelin.fr/28vc6i9/le-pot-detain-danjoutin",
    "chef": "Philippe Zeiger",
    "star": 1
  },
  {
    "name": "L'Hysope",
    "thoroughfare": "25 r. de l'Aurore",
    "postalCode": "17220",
    "city": "La Jarrie",
    "uri": "https://restaurant.michelin.fr/hq8ezzf7/lhysope-la-jarrie",
    "chef": "",
    "star": 1
  },
  {
    "name": "Étude",
    "thoroughfare": "14 r. Bouquet-de-Longchamp",
    "postalCode": "75016",
    "city": "Paris",
    "uri": "https://restaurant.michelin.fr/3g8qf775/etude-paris-16",
    "chef": "Keisuke Yamagishi",
    "star": 1
  },
  {
    "name": "Château de Codignat",
    "thoroughfare": "Bort l'Etang",
    "postalCode": "63190",
    "city": "Bort-l'Étang",
    "uri": "https://restaurant.michelin.fr/2c4fx70/chateau-de-codignat-bort-letang",
    "chef": "Barbet Matthieu",
    "star": 1
  },
  {
    "name": "L'Aromate",
    "thoroughfare": "2 r. Gustave Deloye",
    "postalCode": "06000",
    "city": "Nice",
    "uri": "https://restaurant.michelin.fr/2epn29l/laromate-nice",
    "chef": "Mickaël Gracieux",
    "star": 1
  },
  {
    "name": "Les Genêts",
    "thoroughfare": "21 bis Rue de l'Océan",
    "postalCode": "85470",
    "city": "Brem-sur-Mer",
    "uri": "https://restaurant.michelin.fr/3ws5njk2/les-genets-brem-sur-mer",
    "chef": "Nicolas Coutand",
    "star": 1
  },
  {
    "name": "Le St-Martin",
    "thoroughfare": "1 r. du Gén.-Leclerc",
    "postalCode": "25200",
    "city": "Montbéliard",
    "uri": "https://restaurant.michelin.fr/29zciea/le-st-martin-montbeliard",
    "chef": "Olivier Prévôt-Carme",
    "star": 1
  },
  {
    "name": "L'Océan",
    "thoroughfare": "43 bd Thiers",
    "postalCode": "64500",
    "city": "Saint-Jean-de-Luz",
    "uri": "https://restaurant.michelin.fr/szxhgy9t/locean-saint-jean-de-luz",
    "chef": "",
    "star": 1
  },
  {
    "name": "Baumanière 1850",
    "thoroughfare": "rte de Bellecôte",
    "postalCode": "73120",
    "city": "Courchevel 1850",
    "uri": "https://restaurant.michelin.fr/2f4vonu/baumaniere-1850-courchevel-1850",
    "chef": "",
    "star": 1
  },
  {
    "name": "Pages",
    "thoroughfare": "4 r. Auguste-Vacquerie",
    "postalCode": "75016",
    "city": "Paris",
    "uri": "https://restaurant.michelin.fr/9idrgh03/pages-paris-16",
    "chef": "Ryuji Teshima",
    "star": 1
  },
  {
    "name": "La Vieille Tour",
    "thoroughfare": "75 r. de la Tour",
    "postalCode": "22190",
    "city": "Plérin",
    "uri": "https://restaurant.michelin.fr/2arxchk/la-vieille-tour-plerin",
    "chef": "Nicolas Adam",
    "star": 1
  }
]
